{
 "type": "FeatureCollection",
 "name": "buildings.geojson",
 "features": [
  {
   "type": "Feature",
   "id": "B-0001",
   "geometry": {
    "type": "Polygon",
    "coordinates": [
     [
      [
       116.34517620487382,
       40.01297691087485
      ],
      [
       116.3477582146919,
       40.01299147187759
      ],
      [
       116.34779042245049,
       40.00960776666956
      ],
      [
       116.34520854011012,
       40.0095932074016
      ],
      [
       116.34517620487382,
       40.01297691087485
      ]
     ]
    ]
   },
   "properties": {
    "id": "B-0001",
    "layer": "BUILDING_FOOTPRINT",
    "building_type": "incubator",
    "label_zh": "孵化器/加速器",
    "label_en": "Incubator",
    "height_m_conceptual": 18,
    "conceptual": true,
    "provisional_constraint": true,
    "note_zh": "概念建筑体块，非审批方案",
    "note_en": "Conceptual massing, not an approved scheme",
    "source_type": "agent_generated_design",
    "confidence": "medium",
    "geometry_role": "design_proposal",
    "generated_build": "v20260822-2236"
   }
  },
  {
   "type": "Feature",
   "id": "B-0002",
   "geometry": {
    "type": "Polygon",
    "coordinates": [
     [
      [
       116.34514878423663,
       40.01841736595326
      ],
      [
       116.34773099907655,
       40.018431929197924
      ],
      [
       116.3477632143799,
       40.01504822719446
      ],
      [
       116.34518112705237,
       40.01503366568481
      ],
      [
       116.34514878423663,
       40.01841736595326
      ]
     ]
    ]
   },
   "properties": {
    "id": "B-0002",
    "layer": "BUILDING_FOOTPRINT",
    "building_type": "mixed_use",
    "label_zh": "混合功能",
    "label_en": "Mixed-use",
    "height_m_conceptual": 18,
    "conceptual": true,
    "provisional_constraint": true,
    "note_zh": "概念建筑体块，非审批方案",
    "note_en": "Conceptual massing, not an approved scheme",
    "source_type": "agent_generated_design",
    "confidence": "medium",
    "geometry_role": "design_proposal",
    "generated_build": "v20260822-2236"
   }
  },
  {
   "type": "Feature",
   "id": "B-0003",
   "geometry": {
    "type": "Polygon",
    "coordinates": [
     [
      [
       116.34512143237856,
       40.023869401024484
      ],
      [
       116.34770385273288,
       40.023883966513
      ],
      [
       116.3477360755923,
       40.02050026772094
      ],
      [
       116.3451537827851,
       40.02048570396763
      ],
      [
       116.34512143237856,
       40.023869401024484
      ]
     ]
    ]
   },
   "properties": {
    "id": "B-0003",
    "layer": "BUILDING_FOOTPRINT",
    "building_type": "ai_r_and_d",
    "label_zh": "AI研发",
    "label_en": "AI R&D",
    "height_m_conceptual": 36,
    "conceptual": true,
    "provisional_constraint": true,
    "note_zh": "概念建筑体块，非审批方案",
    "note_en": "Conceptual massing, not an approved scheme",
    "source_type": "agent_generated_design",
    "confidence": "medium",
    "geometry_role": "design_proposal",
    "generated_build": "v20260822-2236"
   }
  },
  {
   "type": "Feature",
   "id": "B-0004",
   "geometry": {
    "type": "Polygon",
    "coordinates": [
     [
      [
       116.34926363332634,
       40.01299990015274
      ],
      [
       116.35184564610839,
       40.013014370096435
      ],
      [
       116.35187765206373,
       40.00963066215617
      ],
      [
       116.34929576675998,
       40.00961619393639
      ],
      [
       116.34926363332634,
       40.01299990015274
      ]
     ]
    ]
   },
   "properties": {
    "id": "B-0004",
    "layer": "BUILDING_FOOTPRINT",
    "building_type": "incubator",
    "label_zh": "孵化器/加速器",
    "label_en": "Incubator",
    "height_m_conceptual": 60,
    "conceptual": true,
    "provisional_constraint": true,
    "note_zh": "概念建筑体块，非审批方案",
    "note_en": "Conceptual massing, not an approved scheme",
    "source_type": "agent_generated_design",
    "confidence": "medium",
    "geometry_role": "design_proposal",
    "generated_build": "v20260822-2236"
   }
  },
  {
   "type": "Feature",
   "id": "B-0005",
   "geometry": {
    "type": "Polygon",
    "coordinates": [
     [
      [
       116.34923617780224,
       40.018451942085655
      ],
      [
       116.35181839604333,
       40.018466414265305
      ],
      [
       116.35185040951944,
       40.01508270953629
      ],
      [
       116.34926831879137,
       40.0150682390808
      ],
      [
       116.34923617780224,
       40.018451942085655
      ]
     ]
    ]
   },
   "properties": {
    "id": "B-0005",
    "layer": "BUILDING_FOOTPRINT",
    "building_type": "mixed_use",
    "label_zh": "混合功能",
    "label_en": "Mixed-use",
    "height_m_conceptual": 45,
    "conceptual": true,
    "provisional_constraint": true,
    "note_zh": "概念建筑体块，非审批方案",
    "note_en": "Conceptual massing, not an approved scheme",
    "source_type": "agent_generated_design",
    "confidence": "medium",
    "geometry_role": "design_proposal",
    "generated_build": "v20260822-2236"
   }
  },
  {
   "type": "Feature",
   "id": "B-0006",
   "geometry": {
    "type": "Polygon",
    "coordinates": [
     [
      [
       116.34920863424534,
       40.023892397582486
      ],
      [
       116.35179105756478,
       40.02390687199656
      ],
      [
       116.35182307855436,
       40.02052317047218
      ],
      [
       116.34924078278262,
       40.02050869778248
      ],
      [
       116.34920863424534,
       40.023892397582486
      ]
     ]
    ]
   },
   "properties": {
    "id": "B-0006",
    "layer": "BUILDING_FOOTPRINT",
    "building_type": "ai_r_and_d",
    "label_zh": "AI研发",
    "label_en": "AI R&D",
    "height_m_conceptual": 60,
    "conceptual": true,
    "provisional_constraint": true,
    "note_zh": "概念建筑体块，非审批方案",
    "note_en": "Conceptual massing, not an approved scheme",
    "source_type": "agent_generated_design",
    "confidence": "medium",
    "geometry_role": "design_proposal",
    "generated_build": "v20260822-2236"
   }
  },
  {
   "type": "Feature",
   "id": "B-0007",
   "geometry": {
    "type": "Polygon",
    "coordinates": [
     [
      [
       116.34320823192532,
       40.00781378301922
      ],
      [
       116.34318991056159,
       40.00972536424406
      ],
      [
       116.34441250880651,
       40.009732286965246
      ],
      [
       116.34441248344879,
       40.00858622388236
      ],
      [
       116.34493311968497,
       40.00858624114275
      ],
      [
       116.34494040978278,
       40.007823586938976
      ],
      [
       116.34320823192532,
       40.00781378301922
      ]
     ]
    ]
   },
   "properties": {
    "id": "B-0007",
    "layer": "BUILDING_FOOTPRINT",
    "building_type": "mixed_use",
    "label_zh": "混合功能",
    "label_en": "Mixed-use",
    "height_m_conceptual": 36,
    "conceptual": true,
    "provisional_constraint": true,
    "note_zh": "概念建筑体块，非审批方案",
    "note_en": "Conceptual massing, not an approved scheme",
    "source_type": "agent_generated_design",
    "confidence": "medium",
    "geometry_role": "design_proposal",
    "generated_build": "v20260822-2236"
   }
  },
  {
   "type": "Feature",
   "id": "B-0008",
   "geometry": {
    "type": "Polygon",
    "coordinates": [
     [
      [
       116.34441253972288,
       40.011145787425136
      ],
      [
       116.34300000538852,
       40.011137788002955
      ],
      [
       116.34300000716301,
       40.01304947197472
      ],
      [
       116.34441258090544,
       40.01305747171192
      ],
      [
       116.34441253972288,
       40.011145787425136
      ]
     ]
    ]
   },
   "properties": {
    "id": "B-0008",
    "layer": "BUILDING_FOOTPRINT",
    "building_type": "talent_apartment",
    "label_zh": "人才公寓",
    "label_en": "Talent Apt",
    "height_m_conceptual": 24,
    "conceptual": true,
    "provisional_constraint": true,
    "note_zh": "概念建筑体块，非审批方案",
    "note_en": "Conceptual massing, not an approved scheme",
    "source_type": "agent_generated_design",
    "confidence": "medium",
    "geometry_role": "design_proposal",
    "generated_build": "v20260822-2236"
   }
  },
  {
   "type": "Feature",
   "id": "B-0009",
   "geometry": {
    "type": "Polygon",
    "coordinates": [
     [
      [
       116.34441260578816,
       40.01422914886741
      ],
      [
       116.34300000789054,
       40.0142211489371
      ],
      [
       116.34300000849014,
       40.01613283189529
      ],
      [
       116.34441264580188,
       40.016140832140664
      ],
      [
       116.34441260578816,
       40.01422914886741
      ]
     ]
    ]
   },
   "properties": {
    "id": "B-0009",
    "layer": "BUILDING_FOOTPRINT",
    "building_type": "mixed_use",
    "label_zh": "混合功能",
    "label_en": "Mixed-use",
    "height_m_conceptual": 18,
    "conceptual": true,
    "provisional_constraint": true,
    "note_zh": "概念建筑体块，非审批方案",
    "note_en": "Conceptual massing, not an approved scheme",
    "source_type": "agent_generated_design",
    "confidence": "medium",
    "geometry_role": "design_proposal",
    "generated_build": "v20260822-2236"
   }
  },
  {
   "type": "Feature",
   "id": "B-0010",
   "geometry": {
    "type": "Polygon",
    "coordinates": [
     [
      [
       116.34632482761273,
       40.007500110101525
      ],
      [
       116.34631446709831,
       40.008586275602156
      ],
      [
       116.34804675819596,
       40.008586295544596
      ],
      [
       116.34805709125581,
       40.00750012966893
      ],
      [
       116.34632482761273,
       40.007500110101525
      ]
     ]
    ]
   },
   "properties": {
    "id": "B-0010",
    "layer": "BUILDING_FOOTPRINT",
    "building_type": "talent_apartment",
    "label_zh": "人才公寓",
    "label_en": "Talent Apt",
    "height_m_conceptual": 45,
    "conceptual": true,
    "provisional_constraint": true,
    "note_zh": "概念建筑体块，非审批方案",
    "note_en": "Conceptual massing, not an approved scheme",
    "source_type": "agent_generated_design",
    "confidence": "medium",
    "geometry_role": "design_proposal",
    "generated_build": "v20260822-2236"
   }
  },
  {
   "type": "Feature",
   "id": "B-0011",
   "geometry": {
    "type": "Polygon",
    "coordinates": [
     [
      [
       116.34911040360056,
       40.00750012890771
      ],
      [
       116.34910008723465,
       40.00858629501094
      ],
      [
       116.35080497509658,
       40.00858627385811
      ],
      [
       116.35081526444223,
       40.007500107387315
      ],
      [
       116.34911040360056,
       40.00750012890771
      ]
     ]
    ]
   },
   "properties": {
    "id": "B-0011",
    "layer": "BUILDING_FOOTPRINT",
    "building_type": "education",
    "label_zh": "教育科研配套",
    "label_en": "Education",
    "height_m_conceptual": 24,
    "conceptual": true,
    "provisional_constraint": true,
    "note_zh": "概念建筑体块，非审批方案",
    "note_en": "Conceptual massing, not an approved scheme",
    "source_type": "agent_generated_design",
    "confidence": "medium",
    "geometry_role": "design_proposal",
    "generated_build": "v20260822-2236"
   }
  },
  {
   "type": "Feature",
   "id": "B-0012",
   "geometry": {
    "type": "Polygon",
    "coordinates": [
     [
      [
       116.3538379901631,
       40.007852395507726
      ],
      [
       116.35213321056015,
       40.00784287775587
      ],
      [
       116.35212618289772,
       40.0085862402155
      ],
      [
       116.35258751870704,
       40.008586224920165
      ],
      [
       116.35258749619003,
       40.00976338994431
      ],
      [
       116.35381990599268,
       40.00977026822467
      ],
      [
       116.3538379901631,
       40.007852395507726
      ]
     ]
    ]
   },
   "properties": {
    "id": "B-0012",
    "layer": "BUILDING_FOOTPRINT",
    "building_type": "education",
    "label_zh": "教育科研配套",
    "label_en": "Education",
    "height_m_conceptual": 45,
    "conceptual": true,
    "provisional_constraint": true,
    "note_zh": "概念建筑体块，非审批方案",
    "note_en": "Conceptual massing, not an approved scheme",
    "source_type": "agent_generated_design",
    "confidence": "medium",
    "geometry_role": "design_proposal",
    "generated_build": "v20260822-2236"
   }
  },
  {
   "type": "Feature",
   "id": "B-0013",
   "geometry": {
    "type": "Polygon",
    "coordinates": [
     [
      [
       116.35400000534595,
       40.0111812715313
      ],
      [
       116.35258746886004,
       40.01117338896502
      ],
      [
       116.35258743105523,
       40.013091361132446
      ],
      [
       116.35400000707895,
       40.01309924401067
      ],
      [
       116.35400000534595,
       40.0111812715313
      ]
     ]
    ]
   },
   "properties": {
    "id": "B-0013",
    "layer": "BUILDING_FOOTPRINT",
    "building_type": "education",
    "label_zh": "教育科研配套",
    "label_en": "Education",
    "height_m_conceptual": 60,
    "conceptual": true,
    "provisional_constraint": true,
    "note_zh": "概念建筑体块，非审批方案",
    "note_en": "Conceptual massing, not an approved scheme",
    "source_type": "agent_generated_design",
    "confidence": "medium",
    "geometry_role": "design_proposal",
    "generated_build": "v20260822-2236"
   }
  },
  {
   "type": "Feature",
   "id": "B-0014",
   "geometry": {
    "type": "Polygon",
    "coordinates": [
     [
      [
       116.35400000778475,
       40.01427477521756
      ],
      [
       116.35258740752634,
       40.01426689214816
      ],
      [
       116.35258736855256,
       40.016184863295145
      ],
      [
       116.35400000835492,
       40.0161927466765
      ],
      [
       116.35400000778475,
       40.01427477521756
      ]
     ]
    ]
   },
   "properties": {
    "id": "B-0014",
    "layer": "BUILDING_FOOTPRINT",
    "building_type": "education",
    "label_zh": "教育科研配套",
    "label_en": "Education",
    "height_m_conceptual": 36,
    "conceptual": true,
    "provisional_constraint": true,
    "note_zh": "概念建筑体块，非审批方案",
    "note_en": "Conceptual massing, not an approved scheme",
    "source_type": "agent_generated_design",
    "confidence": "medium",
    "geometry_role": "design_proposal",
    "generated_build": "v20260822-2236"
   }
  },
  {
   "type": "Feature",
   "id": "B-0015",
   "geometry": {
    "type": "Polygon",
    "coordinates": [
     [
      [
       116.34441267000884,
       40.017314488534176
      ],
      [
       116.34300000849734,
       40.01730648809539
      ],
      [
       116.34300000791798,
       40.01922463062946
      ],
      [
       116.34441270898292,
       40.01923263138435
      ],
      [
       116.34441267000884,
       40.017314488534176
      ]
     ]
    ]
   },
   "properties": {
    "id": "B-0015",
    "layer": "BUILDING_FOOTPRINT",
    "building_type": "cultural",
    "label_zh": "文化展示",
    "label_en": "Cultural",
    "height_m_conceptual": 24,
    "conceptual": true,
    "provisional_constraint": true,
    "note_zh": "概念建筑体块，非审批方案",
    "note_en": "Conceptual massing, not an approved scheme",
    "source_type": "agent_generated_design",
    "confidence": "medium",
    "geometry_role": "design_proposal",
    "generated_build": "v20260822-2236"
   }
  },
  {
   "type": "Feature",
   "id": "B-0016",
   "geometry": {
    "type": "Polygon",
    "coordinates": [
     [
      [
       116.34441273250958,
       40.02040826701206
      ],
      [
       116.34300000720033,
       40.02040026606344
      ],
      [
       116.3430000054379,
       40.022318407577046
      ],
      [
       116.34441277030672,
       40.02232640884179
      ],
      [
       116.34441273250958,
       40.02040826701206
      ]
     ]
    ]
   },
   "properties": {
    "id": "B-0016",
    "layer": "BUILDING_FOOTPRINT",
    "building_type": "cultural",
    "label_zh": "文化展示",
    "label_en": "Cultural",
    "height_m_conceptual": 24,
    "conceptual": true,
    "provisional_constraint": true,
    "note_zh": "概念建筑体块，非审批方案",
    "note_en": "Conceptual massing, not an approved scheme",
    "source_type": "agent_generated_design",
    "confidence": "medium",
    "geometry_role": "design_proposal",
    "generated_build": "v20260822-2236"
   }
  },
  {
   "type": "Feature",
   "id": "B-0017",
   "geometry": {
    "type": "Polygon",
    "coordinates": [
     [
      [
       116.34316143706138,
       40.02564737540922
      ],
      [
       116.34486665751945,
       40.0256570286763
      ],
      [
       116.34487376590303,
       40.02491391152903
      ],
      [
       116.34441282013718,
       40.02491389624568
      ],
      [
       116.3444127976238,
       40.023736321297136
      ],
      [
       116.3431798314967,
       40.02372933922931
      ],
      [
       116.34316143706138,
       40.02564737540922
      ]
     ]
    ]
   },
   "properties": {
    "id": "B-0017",
    "layer": "BUILDING_FOOTPRINT",
    "building_type": "cultural",
    "label_zh": "文化展示",
    "label_en": "Cultural",
    "height_m_conceptual": 60,
    "conceptual": true,
    "provisional_constraint": true,
    "note_zh": "概念建筑体块，非审批方案",
    "note_en": "Conceptual massing, not an approved scheme",
    "source_type": "agent_generated_design",
    "confidence": "medium",
    "geometry_role": "design_proposal",
    "generated_build": "v20260822-2236"
   }
  },
  {
   "type": "Feature",
   "id": "B-0018",
   "geometry": {
    "type": "Polygon",
    "coordinates": [
     [
      [
       116.34619446492005,
       40.024913945165565
      ],
      [
       116.34618409595221,
       40.02600010738652
      ],
      [
       116.34788941751036,
       40.02600012892112
      ],
      [
       116.3478997594344,
       40.02491396633091
      ],
      [
       116.34619446492005,
       40.024913945165565
      ]
     ]
    ]
   },
   "properties": {
    "id": "B-0018",
    "layer": "BUILDING_FOOTPRINT",
    "building_type": "cultural",
    "label_zh": "文化展示",
    "label_en": "Cultural",
    "height_m_conceptual": 24,
    "conceptual": true,
    "provisional_constraint": true,
    "note_zh": "概念建筑体块，非审批方案",
    "note_en": "Conceptual massing, not an approved scheme",
    "source_type": "agent_generated_design",
    "confidence": "medium",
    "geometry_role": "design_proposal",
    "generated_build": "v20260822-2236"
   }
  },
  {
   "type": "Feature",
   "id": "B-0019",
   "geometry": {
    "type": "Polygon",
    "coordinates": [
     [
      [
       116.3489531996513,
       40.02491396686559
      ],
      [
       116.34894287443349,
       40.026000129683474
      ],
      [
       116.35067514915634,
       40.0260001101142
      ],
      [
       116.3506854469029,
       40.024913946922794
      ],
      [
       116.3489531996513,
       40.02491396686559
      ]
     ]
    ]
   },
   "properties": {
    "id": "B-0019",
    "layer": "BUILDING_FOOTPRINT",
    "building_type": "retail",
    "label_zh": "商业服务",
    "label_en": "Retail",
    "height_m_conceptual": 18,
    "conceptual": true,
    "provisional_constraint": true,
    "note_zh": "概念建筑体块，非审批方案",
    "note_en": "Conceptual massing, not an approved scheme",
    "source_type": "agent_generated_design",
    "confidence": "medium",
    "geometry_role": "design_proposal",
    "generated_build": "v20260822-2236"
   }
  },
  {
   "type": "Feature",
   "id": "B-0020",
   "geometry": {
    "type": "Polygon",
    "coordinates": [
     [
      [
       116.3540000083482,
       40.017366403105186
      ],
      [
       116.35258734434605,
       40.01735851953296
      ],
      [
       116.3525873043331,
       40.01927037400675
      ],
      [
       116.35400000775913,
       40.01927825788992
      ],
      [
       116.3540000083482,
       40.017366403105186
      ]
     ]
    ]
   },
   "properties": {
    "id": "B-0020",
    "layer": "BUILDING_FOOTPRINT",
    "building_type": "mixed_use",
    "label_zh": "混合功能",
    "label_en": "Mixed-use",
    "height_m_conceptual": 36,
    "conceptual": true,
    "provisional_constraint": true,
    "note_zh": "概念建筑体块，非审批方案",
    "note_en": "Conceptual massing, not an approved scheme",
    "source_type": "agent_generated_design",
    "confidence": "medium",
    "geometry_role": "design_proposal",
    "generated_build": "v20260822-2236"
   }
  },
  {
   "type": "Feature",
   "id": "B-0021",
   "geometry": {
    "type": "Polygon",
    "coordinates": [
     [
      [
       116.35400000704394,
       40.02045003954403
      ],
      [
       116.35258727945302,
       40.02044215547027
      ],
      [
       116.35258723827832,
       40.02235400893009
      ],
      [
       116.35400000529924,
       40.02236189331477
      ],
      [
       116.35400000704394,
       40.02045003954403
      ]
     ]
    ]
   },
   "properties": {
    "id": "B-0021",
    "layer": "BUILDING_FOOTPRINT",
    "building_type": "retail",
    "label_zh": "商业服务",
    "label_en": "Retail",
    "height_m_conceptual": 36,
    "conceptual": true,
    "provisional_constraint": true,
    "note_zh": "概念建筑体块，非审批方案",
    "note_en": "Conceptual massing, not an approved scheme",
    "source_type": "agent_generated_design",
    "confidence": "medium",
    "geometry_role": "design_proposal",
    "generated_build": "v20260822-2236"
   }
  },
  {
   "type": "Feature",
   "id": "B-0022",
   "geometry": {
    "type": "Polygon",
    "coordinates": [
     [
      [
       116.35379187263553,
       40.025686113699656
      ],
      [
       116.3538099100824,
       40.02377436160453
      ],
      [
       116.35258720737266,
       40.023767536871595
      ],
      [
       116.35258718201929,
       40.02491389520827
      ],
      [
       116.35206691134137,
       40.02491391245751
      ],
      [
       116.3520596973656,
       40.025676441066075
      ],
      [
       116.35379187263553,
       40.025686113699656
      ]
     ]
    ]
   },
   "properties": {
    "id": "B-0022",
    "layer": "BUILDING_FOOTPRINT",
    "building_type": "mixed_use",
    "label_zh": "混合功能",
    "label_en": "Mixed-use",
    "height_m_conceptual": 24,
    "conceptual": true,
    "provisional_constraint": true,
    "note_zh": "概念建筑体块，非审批方案",
    "note_en": "Conceptual massing, not an approved scheme",
    "source_type": "agent_generated_design",
    "confidence": "medium",
    "geometry_role": "design_proposal",
    "generated_build": "v20260822-2236"
   }
  },
  {
   "type": "Feature",
   "id": "B-0023",
   "geometry": {
    "type": "Polygon",
    "coordinates": [
     [
      [
       116.34382419807517,
       39.98652748844914
      ],
      [
       116.34665952034631,
       39.98654350540734
      ],
      [
       116.346676378115,
       39.98477383670474
      ],
      [
       116.34384112898931,
       39.98475782074476
      ],
      [
       116.34382419807517,
       39.98652748844914
      ]
     ]
    ]
   },
   "properties": {
    "id": "B-0023",
    "layer": "BUILDING_FOOTPRINT",
    "building_type": "ai_r_and_d",
    "label_zh": "AI研发",
    "label_en": "AI R&D",
    "height_m_conceptual": 45,
    "conceptual": true,
    "provisional_constraint": true,
    "note_zh": "概念建筑体块，非审批方案",
    "note_en": "Conceptual massing, not an approved scheme",
    "source_type": "agent_generated_design",
    "confidence": "medium",
    "geometry_role": "design_proposal",
    "generated_build": "v20260822-2236"
   }
  },
  {
   "type": "Feature",
   "id": "B-0024",
   "geometry": {
    "type": "Polygon",
    "coordinates": [
     [
      [
       116.34380717765683,
       39.989362729229796
      ],
      [
       116.34664261713584,
       39.989378747540044
      ],
      [
       116.34665947703228,
       39.987609079711696
      ],
      [
       116.34382411070908,
       39.987593062399704
      ],
      [
       116.34380717765683,
       39.989362729229796
      ]
     ]
    ]
   },
   "properties": {
    "id": "B-0024",
    "layer": "BUILDING_FOOTPRINT",
    "building_type": "mixed_use",
    "label_zh": "混合功能",
    "label_en": "Mixed-use",
    "height_m_conceptual": 60,
    "conceptual": true,
    "provisional_constraint": true,
    "note_zh": "概念建筑体块，非审批方案",
    "note_en": "Conceptual massing, not an approved scheme",
    "source_type": "agent_generated_design",
    "confidence": "medium",
    "geometry_role": "design_proposal",
    "generated_build": "v20260822-2236"
   }
  },
  {
   "type": "Feature",
   "id": "B-0025",
   "geometry": {
    "type": "Polygon",
    "coordinates": [
     [
      [
       116.34379026631747,
       39.992210779329994
      ],
      [
       116.34662582355072,
       39.992226798993904
      ],
      [
       116.34664268557995,
       39.990457132043694
      ],
      [
       116.34380720151287,
       39.99044111337813
      ],
      [
       116.34379026631747,
       39.992210779329994
      ]
     ]
    ]
   },
   "properties": {
    "id": "B-0025",
    "layer": "BUILDING_FOOTPRINT",
    "building_type": "retail",
    "label_zh": "商业服务",
    "label_en": "Retail",
    "height_m_conceptual": 24,
    "conceptual": true,
    "provisional_constraint": true,
    "note_zh": "概念建筑体块，非审批方案",
    "note_en": "Conceptual massing, not an approved scheme",
    "source_type": "agent_generated_design",
    "confidence": "medium",
    "geometry_role": "design_proposal",
    "generated_build": "v20260822-2236"
   }
  },
  {
   "type": "Feature",
   "id": "B-0026",
   "geometry": {
    "type": "Polygon",
    "coordinates": [
     [
      [
       116.34835715273452,
       39.98654310297884
      ],
      [
       116.35119247820944,
       39.986559009059874
      ],
      [
       116.35120921903102,
       39.984789338767364
      ],
      [
       116.34837396670183,
       39.98477343367761
      ],
      [
       116.34835715273452,
       39.98654310297884
      ]
     ]
    ]
   },
   "properties": {
    "id": "B-0026",
    "layer": "BUILDING_FOOTPRINT",
    "building_type": "ai_r_and_d",
    "label_zh": "AI研发",
    "label_en": "AI R&D",
    "height_m_conceptual": 45,
    "conceptual": true,
    "provisional_constraint": true,
    "note_zh": "概念建筑体块，非审批方案",
    "note_en": "Conceptual massing, not an approved scheme",
    "source_type": "agent_generated_design",
    "confidence": "medium",
    "geometry_role": "design_proposal",
    "generated_build": "v20260822-2236"
   }
  },
  {
   "type": "Feature",
   "id": "B-0027",
   "geometry": {
    "type": "Polygon",
    "coordinates": [
     [
      [
       116.34834020271738,
       39.989391154825356
      ],
      [
       116.35117564593016,
       39.98940706225445
      ],
      [
       116.35119238887347,
       39.98763739284005
      ],
      [
       116.34835701881686,
       39.987621486402304
      ],
      [
       116.34834020271738,
       39.989391154825356
      ]
     ]
    ]
   },
   "properties": {
    "id": "B-0027",
    "layer": "BUILDING_FOOTPRINT",
    "building_type": "mixed_use",
    "label_zh": "混合功能",
    "label_en": "Mixed-use",
    "height_m_conceptual": 60,
    "conceptual": true,
    "provisional_constraint": true,
    "note_zh": "概念建筑体块，非审批方案",
    "note_en": "Conceptual massing, not an approved scheme",
    "source_type": "agent_generated_design",
    "confidence": "medium",
    "geometry_role": "design_proposal",
    "generated_build": "v20260822-2236"
   }
  },
  {
   "type": "Feature",
   "id": "B-0028",
   "geometry": {
    "type": "Polygon",
    "coordinates": [
     [
      [
       116.34832313872188,
       39.99222639588531
      ],
      [
       116.35115869915951,
       39.992242304661055
      ],
      [
       116.35117544422019,
       39.99047263612088
      ],
      [
       116.34833995694908,
       39.99045672833656
      ],
      [
       116.34832313872188,
       39.99222639588531
      ]
     ]
    ]
   },
   "properties": {
    "id": "B-0028",
    "layer": "BUILDING_FOOTPRINT",
    "building_type": "retail",
    "label_zh": "商业服务",
    "label_en": "Retail",
    "height_m_conceptual": 60,
    "conceptual": true,
    "provisional_constraint": true,
    "note_zh": "概念建筑体块，非审批方案",
    "note_en": "Conceptual massing, not an approved scheme",
    "source_type": "agent_generated_design",
    "confidence": "medium",
    "geometry_role": "design_proposal",
    "generated_build": "v20260822-2236"
   }
  },
  {
   "type": "Feature",
   "id": "B-0029",
   "geometry": {
    "type": "Polygon",
    "coordinates": [
     [
      [
       116.34226384080291,
       39.98359246843855
      ],
      [
       116.34225393167978,
       39.98462577635446
      ],
      [
       116.34296696383451,
       39.98462982047186
      ],
      [
       116.34296695808015,
       39.984243876725344
      ],
      [
       116.34397735819945,
       39.984243911926626
      ],
      [
       116.34398349574646,
       39.98360221416068
      ],
      [
       116.34226384080291,
       39.98359246843855
      ]
     ]
    ]
   },
   "properties": {
    "id": "B-0029",
    "layer": "BUILDING_FOOTPRINT",
    "building_type": "mixed_use",
    "label_zh": "混合功能",
    "label_en": "Mixed-use",
    "height_m_conceptual": 18,
    "conceptual": true,
    "provisional_constraint": true,
    "note_zh": "概念建筑体块，非审批方案",
    "note_en": "Conceptual massing, not an approved scheme",
    "source_type": "agent_generated_design",
    "confidence": "medium",
    "geometry_role": "design_proposal",
    "generated_build": "v20260822-2236"
   }
  },
  {
   "type": "Feature",
   "id": "B-0030",
   "geometry": {
    "type": "Polygon",
    "coordinates": [
     [
      [
       116.34296697607739,
       39.985457647865246
      ],
      [
       116.34200000156825,
       39.985452162371644
      ],
      [
       116.34200000209044,
       39.986485526184495
      ],
      [
       116.34296699116867,
       39.986491011795
      ],
      [
       116.34296697607739,
       39.985457647865246
      ]
     ]
    ]
   },
   "properties": {
    "id": "B-0030",
    "layer": "BUILDING_FOOTPRINT",
    "building_type": "talent_apartment",
    "label_zh": "人才公寓",
    "label_en": "Talent Apt",
    "height_m_conceptual": 45,
    "conceptual": true,
    "provisional_constraint": true,
    "note_zh": "概念建筑体块，非审批方案",
    "note_en": "Conceptual massing, not an approved scheme",
    "source_type": "agent_generated_design",
    "confidence": "medium",
    "geometry_role": "design_proposal",
    "generated_build": "v20260822-2236"
   }
  },
  {
   "type": "Feature",
   "id": "B-0031",
   "geometry": {
    "type": "Polygon",
    "coordinates": [
     [
      [
       116.34296700031317,
       39.98712436379024
      ],
      [
       116.34200000230516,
       39.98711887810807
      ],
      [
       116.34200000248352,
       39.988152241624825
      ],
      [
       116.3429670150618,
       39.988157727423925
      ],
      [
       116.34296700031317,
       39.98712436379024
      ]
     ]
    ]
   },
   "properties": {
    "id": "B-0031",
    "layer": "BUILDING_FOOTPRINT",
    "building_type": "mixed_use",
    "label_zh": "混合功能",
    "label_en": "Mixed-use",
    "height_m_conceptual": 60,
    "conceptual": true,
    "provisional_constraint": true,
    "note_zh": "概念建筑体块，非审批方案",
    "note_en": "Conceptual massing, not an approved scheme",
    "source_type": "agent_generated_design",
    "confidence": "medium",
    "geometry_role": "design_proposal",
    "generated_build": "v20260822-2236"
   }
  },
  {
   "type": "Feature",
   "id": "B-0032",
   "geometry": {
    "type": "Polygon",
    "coordinates": [
     [
      [
       116.34530080150785,
       39.983500109632175
      ],
      [
       116.34529370136018,
       39.98424394457392
      ],
      [
       116.3470134658441,
       39.98424396470183
      ],
      [
       116.3470205473421,
       39.98350012950473
      ],
      [
       116.34530080150785,
       39.983500109632175
      ]
     ]
    ]
   },
   "properties": {
    "id": "B-0032",
    "layer": "BUILDING_FOOTPRINT",
    "building_type": "talent_apartment",
    "label_zh": "人才公寓",
    "label_en": "Talent Apt",
    "height_m_conceptual": 24,
    "conceptual": true,
    "provisional_constraint": true,
    "note_zh": "概念建筑体块，非审批方案",
    "note_en": "Conceptual massing, not an approved scheme",
    "source_type": "agent_generated_design",
    "confidence": "medium",
    "geometry_role": "design_proposal",
    "generated_build": "v20260822-2236"
   }
  },
  {
   "type": "Feature",
   "id": "B-0033",
   "geometry": {
    "type": "Polygon",
    "coordinates": [
     [
      [
       116.3480700560823,
       39.983500129094516
      ],
      [
       116.34806298596563,
       39.98424396444714
      ],
      [
       116.3497679713466,
       39.98424394377341
      ],
      [
       116.34977502297384,
       39.98350010816865
      ],
      [
       116.3480700560823,
       39.983500129094516
      ]
     ]
    ]
   },
   "properties": {
    "id": "B-0033",
    "layer": "BUILDING_FOOTPRINT",
    "building_type": "education",
    "label_zh": "教育科研配套",
    "label_en": "Education",
    "height_m_conceptual": 36,
    "conceptual": true,
    "provisional_constraint": true,
    "note_zh": "概念建筑体块，非审批方案",
    "note_en": "Conceptual massing, not an approved scheme",
    "source_type": "agent_generated_design",
    "confidence": "medium",
    "geometry_role": "design_proposal",
    "generated_build": "v20260822-2236"
   }
  },
  {
   "type": "Feature",
   "id": "B-0034",
   "geometry": {
    "type": "Polygon",
    "coordinates": [
     [
      [
       116.35277307992807,
       39.983615591452256
      ],
      [
       116.35106820037463,
       39.98360605887098
      ],
      [
       116.35106216549741,
       39.984243911336016
      ],
      [
       116.35203304214639,
       39.98424387751536
      ],
      [
       116.35203303672817,
       39.984651164701546
      ],
      [
       116.35276326925828,
       39.98465524470559
      ],
      [
       116.35277307992807,
       39.983615591452256
      ]
     ]
    ]
   },
   "properties": {
    "id": "B-0034",
    "layer": "BUILDING_FOOTPRINT",
    "building_type": "education",
    "label_zh": "教育科研配套",
    "label_en": "Education",
    "height_m_conceptual": 45,
    "conceptual": true,
    "provisional_constraint": true,
    "note_zh": "概念建筑体块，非审批方案",
    "note_en": "Conceptual massing, not an approved scheme",
    "source_type": "agent_generated_design",
    "confidence": "medium",
    "geometry_role": "design_proposal",
    "generated_build": "v20260822-2236"
   }
  },
  {
   "type": "Feature",
   "id": "B-0035",
   "geometry": {
    "type": "Polygon",
    "coordinates": [
     [
      [
       116.3530000015678,
       39.98549556855233
      ],
      [
       116.35203302546378,
       39.9854901667588
      ],
      [
       116.35203301131236,
       39.98652987435674
      ],
      [
       116.35300000207491,
       39.98653527626624
      ],
      [
       116.3530000015678,
       39.98549556855233
      ]
     ]
    ]
   },
   "properties": {
    "id": "B-0035",
    "layer": "BUILDING_FOOTPRINT",
    "building_type": "education",
    "label_zh": "教育科研配套",
    "label_en": "Education",
    "height_m_conceptual": 45,
    "conceptual": true,
    "provisional_constraint": true,
    "note_zh": "概念建筑体块，非审批方案",
    "note_en": "Conceptual massing, not an approved scheme",
    "source_type": "agent_generated_design",
    "confidence": "medium",
    "geometry_role": "design_proposal",
    "generated_build": "v20260822-2236"
   }
  },
  {
   "type": "Feature",
   "id": "B-0036",
   "geometry": {
    "type": "Polygon",
    "coordinates": [
     [
      [
       116.35300000228087,
       39.987172516386146
      ],
      [
       116.35203300253362,
       39.98716711440557
      ],
      [
       116.35203298803872,
       39.988206821703706
      ],
      [
       116.35300000244571,
       39.98821222380024
      ],
      [
       116.35300000228087,
       39.987172516386146
      ]
     ]
    ]
   },
   "properties": {
    "id": "B-0036",
    "layer": "BUILDING_FOOTPRINT",
    "building_type": "education",
    "label_zh": "教育科研配套",
    "label_en": "Education",
    "height_m_conceptual": 60,
    "conceptual": true,
    "provisional_constraint": true,
    "note_zh": "概念建筑体块，非审批方案",
    "note_en": "Conceptual massing, not an approved scheme",
    "source_type": "agent_generated_design",
    "confidence": "medium",
    "geometry_role": "design_proposal",
    "generated_build": "v20260822-2236"
   }
  },
  {
   "type": "Feature",
   "id": "B-0037",
   "geometry": {
    "type": "Polygon",
    "coordinates": [
     [
      [
       116.34296702402382,
       39.98879303872927
      ],
      [
       116.34200000248735,
       39.9887875528583
      ],
      [
       116.34200000231975,
       39.98982731020715
      ],
      [
       116.34296703851788,
       39.98983279619577
      ],
      [
       116.34296702402382,
       39.98879303872927
      ]
     ]
    ]
   },
   "properties": {
    "id": "B-0037",
    "layer": "BUILDING_FOOTPRINT",
    "building_type": "cultural",
    "label_zh": "文化展示",
    "label_en": "Cultural",
    "height_m_conceptual": 24,
    "conceptual": true,
    "provisional_constraint": true,
    "note_zh": "概念建筑体块，非审批方案",
    "note_en": "Conceptual massing, not an approved scheme",
    "source_type": "agent_generated_design",
    "confidence": "medium",
    "geometry_role": "design_proposal",
    "generated_build": "v20260822-2236"
   }
  },
  {
   "type": "Feature",
   "id": "B-0038",
   "geometry": {
    "type": "Polygon",
    "coordinates": [
     [
      [
       116.34296704729505,
       39.99047006680915
      ],
      [
       116.34200000211034,
       39.99046458074842
      ],
      [
       116.34200000159464,
       39.99150433779751
      ],
      [
       116.34296706144222,
       39.99150982397588
      ],
      [
       116.34296704729505,
       39.99047006680915
      ]
     ]
    ]
   },
   "properties": {
    "id": "B-0038",
    "layer": "BUILDING_FOOTPRINT",
    "building_type": "cultural",
    "label_zh": "文化展示",
    "label_en": "Cultural",
    "height_m_conceptual": 36,
    "conceptual": true,
    "provisional_constraint": true,
    "note_zh": "概念建筑体块，非审批方案",
    "note_en": "Conceptual massing, not an approved scheme",
    "source_type": "agent_generated_design",
    "confidence": "medium",
    "geometry_role": "design_proposal",
    "generated_build": "v20260822-2236"
   }
  },
  {
   "type": "Feature",
   "id": "B-0039",
   "geometry": {
    "type": "Polygon",
    "coordinates": [
     [
      [
       116.34222654260587,
       39.99338437430271
      ],
      [
       116.3439316630665,
       39.9933940388828
      ],
      [
       116.3439377657145,
       39.99275624198467
      ],
      [
       116.34296707811734,
       39.99275620816905
      ],
      [
       116.34296707270096,
       39.992348817937646
      ],
      [
       116.34223651654821,
       39.99234467418089
      ],
      [
       116.34222654260587,
       39.99338437430271
      ]
     ]
    ]
   },
   "properties": {
    "id": "B-0039",
    "layer": "BUILDING_FOOTPRINT",
    "building_type": "cultural",
    "label_zh": "文化展示",
    "label_en": "Cultural",
    "height_m_conceptual": 36,
    "conceptual": true,
    "provisional_constraint": true,
    "note_zh": "概念建筑体块，非审批方案",
    "note_en": "Conceptual massing, not an approved scheme",
    "source_type": "agent_generated_design",
    "confidence": "medium",
    "geometry_role": "design_proposal",
    "generated_build": "v20260822-2236"
   }
  },
  {
   "type": "Feature",
   "id": "B-0040",
   "geometry": {
    "type": "Polygon",
    "coordinates": [
     [
      [
       116.34523173977678,
       39.99275627442026
      ],
      [
       116.34522463655362,
       39.99350010816852
      ],
      [
       116.34692985234857,
       39.99350012910188
      ],
      [
       116.34693693707376,
       39.99275629510034
      ],
      [
       116.34523173977678,
       39.99275627442026
      ]
     ]
    ]
   },
   "properties": {
    "id": "B-0040",
    "layer": "BUILDING_FOOTPRINT",
    "building_type": "cultural",
    "label_zh": "文化展示",
    "label_en": "Cultural",
    "height_m_conceptual": 24,
    "conceptual": true,
    "provisional_constraint": true,
    "note_zh": "概念建筑体块，非审批方案",
    "note_en": "Conceptual massing, not an approved scheme",
    "source_type": "agent_generated_design",
    "confidence": "medium",
    "geometry_role": "design_proposal",
    "generated_build": "v20260822-2236"
   }
  },
  {
   "type": "Feature",
   "id": "B-0041",
   "geometry": {
    "type": "Polygon",
    "coordinates": [
     [
      [
       116.34798651197123,
       39.99275629535555
      ],
      [
       116.34797943863184,
       39.99350012951261
      ],
      [
       116.34969918860564,
       39.99350010963899
      ],
      [
       116.34970624328943,
       39.99275627522758
      ],
      [
       116.34798651197123,
       39.99275629535555
      ]
     ]
    ]
   },
   "properties": {
    "id": "B-0041",
    "layer": "BUILDING_FOOTPRINT",
    "building_type": "retail",
    "label_zh": "商业服务",
    "label_en": "Retail",
    "height_m_conceptual": 36,
    "conceptual": true,
    "provisional_constraint": true,
    "note_zh": "概念建筑体块，非审批方案",
    "note_en": "Conceptual massing, not an approved scheme",
    "source_type": "agent_generated_design",
    "confidence": "medium",
    "geometry_role": "design_proposal",
    "generated_build": "v20260822-2236"
   }
  },
  {
   "type": "Feature",
   "id": "B-0042",
   "geometry": {
    "type": "Polygon",
    "coordinates": [
     [
      [
       116.353000002442,
       39.98884753515517
      ],
      [
       116.35203297907677,
       39.98884213298778
      ],
      [
       116.3520329643292,
       39.98987554672336
      ],
      [
       116.35300000226668,
       39.989880949006015
      ],
      [
       116.353000002442,
       39.98884753515517
      ]
     ]
    ]
   },
   "properties": {
    "id": "B-0042",
    "layer": "BUILDING_FOOTPRINT",
    "building_type": "mixed_use",
    "label_zh": "混合功能",
    "label_en": "Mixed-use",
    "height_m_conceptual": 18,
    "conceptual": true,
    "provisional_constraint": true,
    "note_zh": "概念建筑体块，非审批方案",
    "note_en": "Conceptual massing, not an approved scheme",
    "source_type": "agent_generated_design",
    "confidence": "medium",
    "geometry_role": "design_proposal",
    "generated_build": "v20260822-2236"
   }
  },
  {
   "type": "Feature",
   "id": "B-0043",
   "geometry": {
    "type": "Polygon",
    "coordinates": [
     [
      [
       116.35300000205562,
       39.990514331598014
      ],
      [
       116.35203295518637,
       39.99050892924471
      ],
      [
       116.35203294009943,
       39.991542342684106
      ],
      [
       116.35300000154216,
       39.99154774515266
      ],
      [
       116.35300000205562,
       39.990514331598014
      ]
     ]
    ]
   },
   "properties": {
    "id": "B-0043",
    "layer": "BUILDING_FOOTPRINT",
    "building_type": "retail",
    "label_zh": "商业服务",
    "label_en": "Retail",
    "height_m_conceptual": 60,
    "conceptual": true,
    "provisional_constraint": true,
    "note_zh": "概念建筑体块，非审批方案",
    "note_en": "Conceptual massing, not an approved scheme",
    "source_type": "agent_generated_design",
    "confidence": "medium",
    "geometry_role": "design_proposal",
    "generated_build": "v20260822-2236"
   }
  },
  {
   "type": "Feature",
   "id": "B-0044",
   "geometry": {
    "type": "Polygon",
    "coordinates": [
     [
      [
       116.35273623985987,
       39.993407532274986
      ],
      [
       116.35274599457617,
       39.99237417353121
      ],
      [
       116.3520329278618,
       39.99237018919749
      ],
      [
       116.35203292210932,
       39.9927562073792
      ],
      [
       116.35102265666562,
       39.99275624257714
      ],
      [
       116.35101658323613,
       39.99339791584361
      ],
      [
       116.35273623985987,
       39.993407532274986
      ]
     ]
    ]
   },
   "properties": {
    "id": "B-0044",
    "layer": "BUILDING_FOOTPRINT",
    "building_type": "mixed_use",
    "label_zh": "混合功能",
    "label_en": "Mixed-use",
    "height_m_conceptual": 18,
    "conceptual": true,
    "provisional_constraint": true,
    "note_zh": "概念建筑体块，非审批方案",
    "note_en": "Conceptual massing, not an approved scheme",
    "source_type": "agent_generated_design",
    "confidence": "medium",
    "geometry_role": "design_proposal",
    "generated_build": "v20260822-2236"
   }
  },
  {
   "type": "Feature",
   "id": "B-0045",
   "geometry": {
    "type": "Polygon",
    "coordinates": [
     [
      [
       116.34354121493038,
       39.94647810878381
      ],
      [
       116.34589382753094,
       39.94649140628162
      ],
      [
       116.34590748673472,
       39.94505716056131
      ],
      [
       116.34355492325342,
       39.94504386373531
      ],
      [
       116.34354121493038,
       39.94647810878381
      ]
     ]
    ]
   },
   "properties": {
    "id": "B-0045",
    "layer": "BUILDING_FOOTPRINT",
    "building_type": "ai_r_and_d",
    "label_zh": "AI研发",
    "label_en": "AI R&D",
    "height_m_conceptual": 60,
    "conceptual": true,
    "provisional_constraint": true,
    "note_zh": "概念建筑体块，非审批方案",
    "note_en": "Conceptual massing, not an approved scheme",
    "source_type": "agent_generated_design",
    "confidence": "medium",
    "geometry_role": "design_proposal",
    "generated_build": "v20260822-2236"
   }
  },
  {
   "type": "Feature",
   "id": "B-0046",
   "geometry": {
    "type": "Polygon",
    "coordinates": [
     [
      [
       116.34352449154578,
       39.94875960145822
      ],
      [
       116.3458771822913,
       39.94877289992157
      ],
      [
       116.34589084294586,
       39.94733865477215
      ],
      [
       116.34353820132517,
       39.947325356980656
      ],
      [
       116.34352449154578,
       39.94875960145822
      ]
     ]
    ]
   },
   "properties": {
    "id": "B-0046",
    "layer": "BUILDING_FOOTPRINT",
    "building_type": "incubator",
    "label_zh": "孵化器/加速器",
    "label_en": "Incubator",
    "height_m_conceptual": 18,
    "conceptual": true,
    "provisional_constraint": true,
    "note_zh": "概念建筑体块，非审批方案",
    "note_en": "Conceptual massing, not an approved scheme",
    "source_type": "agent_generated_design",
    "confidence": "medium",
    "geometry_role": "design_proposal",
    "generated_build": "v20260822-2236"
   }
  },
  {
   "type": "Feature",
   "id": "B-0047",
   "geometry": {
    "type": "Polygon",
    "coordinates": [
     [
      [
       116.34733044932418,
       39.94648991903624
      ],
      [
       116.34968306410646,
       39.94650313964645
      ],
      [
       116.34969664419148,
       39.945068892846805
      ],
      [
       116.34734407852864,
       39.945055672904495
      ],
      [
       116.34733044932418,
       39.94648991903624
      ]
     ]
    ]
   },
   "properties": {
    "id": "B-0047",
    "layer": "BUILDING_FOOTPRINT",
    "building_type": "mixed_use",
    "label_zh": "混合功能",
    "label_en": "Mixed-use",
    "height_m_conceptual": 24,
    "conceptual": true,
    "provisional_constraint": true,
    "note_zh": "概念建筑体块，非审批方案",
    "note_en": "Conceptual massing, not an approved scheme",
    "source_type": "agent_generated_design",
    "confidence": "medium",
    "geometry_role": "design_proposal",
    "generated_build": "v20260822-2236"
   }
  },
  {
   "type": "Feature",
   "id": "B-0048",
   "geometry": {
    "type": "Polygon",
    "coordinates": [
     [
      [
       116.34730285523608,
       39.948771459118895
      ],
      [
       116.34965554816004,
       39.94878468091165
      ],
      [
       116.34966912991652,
       39.94735043468594
      ],
      [
       116.34731648611759,
       39.94733721356116
      ],
      [
       116.34730285523608,
       39.948771459118895
      ]
     ]
    ]
   },
   "properties": {
    "id": "B-0048",
    "layer": "BUILDING_FOOTPRINT",
    "building_type": "ai_r_and_d",
    "label_zh": "AI研发",
    "label_en": "AI R&D",
    "height_m_conceptual": 36,
    "conceptual": true,
    "provisional_constraint": true,
    "note_zh": "概念建筑体块，非审批方案",
    "note_en": "Conceptual massing, not an approved scheme",
    "source_type": "agent_generated_design",
    "confidence": "medium",
    "geometry_role": "design_proposal",
    "generated_build": "v20260822-2236"
   }
  },
  {
   "type": "Feature",
   "id": "B-0049",
   "geometry": {
    "type": "Polygon",
    "coordinates": [
     [
      [
       116.35110901389724,
       39.946501631117535
      ],
      [
       116.35346163084263,
       39.94651477505659
      ],
      [
       116.35347513203158,
       39.94508052718683
      ],
      [
       116.3511225642058,
       39.94506738391185
      ],
      [
       116.35110901389724,
       39.946501631117535
      ]
     ]
    ]
   },
   "properties": {
    "id": "B-0049",
    "layer": "BUILDING_FOOTPRINT",
    "building_type": "incubator",
    "label_zh": "孵化器/加速器",
    "label_en": "Incubator",
    "height_m_conceptual": 45,
    "conceptual": true,
    "provisional_constraint": true,
    "note_zh": "概念建筑体块，非审批方案",
    "note_en": "Conceptual massing, not an approved scheme",
    "source_type": "agent_generated_design",
    "confidence": "medium",
    "geometry_role": "design_proposal",
    "generated_build": "v20260822-2236"
   }
  },
  {
   "type": "Feature",
   "id": "B-0050",
   "geometry": {
    "type": "Polygon",
    "coordinates": [
     [
      [
       116.35109232462236,
       39.94878312537177
      ],
      [
       116.3534450197131,
       39.94879627026841
      ],
      [
       116.35345852233937,
       39.94736202296949
      ],
      [
       116.35110587637381,
       39.94734887873693
      ],
      [
       116.35109232462236,
       39.94878312537177
      ]
     ]
    ]
   },
   "properties": {
    "id": "B-0050",
    "layer": "BUILDING_FOOTPRINT",
    "building_type": "mixed_use",
    "label_zh": "混合功能",
    "label_en": "Mixed-use",
    "height_m_conceptual": 60,
    "conceptual": true,
    "provisional_constraint": true,
    "note_zh": "概念建筑体块，非审批方案",
    "note_en": "Conceptual massing, not an approved scheme",
    "source_type": "agent_generated_design",
    "confidence": "medium",
    "geometry_role": "design_proposal",
    "generated_build": "v20260822-2236"
   }
  },
  {
   "type": "Feature",
   "id": "B-0051",
   "geometry": {
    "type": "Polygon",
    "coordinates": [
     [
      [
       116.34220141268383,
       39.944090904439335
      ],
      [
       116.34219274360147,
       39.94499609084005
      ],
      [
       116.34282947142353,
       39.944999701855814
      ],
      [
       116.34282946690963,
       39.944638485833416
      ],
      [
       116.34354523767989,
       39.944638518687796
      ],
      [
       116.34355039836993,
       39.94409855053016
      ],
      [
       116.34220141268383,
       39.944090904439335
      ]
     ]
    ]
   },
   "properties": {
    "id": "B-0051",
    "layer": "BUILDING_FOOTPRINT",
    "building_type": "mixed_use",
    "label_zh": "混合功能",
    "label_en": "Mixed-use",
    "height_m_conceptual": 18,
    "conceptual": true,
    "provisional_constraint": true,
    "note_zh": "概念建筑体块，非审批方案",
    "note_en": "Conceptual massing, not an approved scheme",
    "source_type": "agent_generated_design",
    "confidence": "medium",
    "geometry_role": "design_proposal",
    "generated_build": "v20260822-2236"
   }
  },
  {
   "type": "Feature",
   "id": "B-0052",
   "geometry": {
    "type": "Polygon",
    "coordinates": [
     [
      [
       116.34282948016842,
       39.94570549061656
      ],
      [
       116.34200000070274,
       39.94570078575636
      ],
      [
       116.34200000084128,
       39.94660602109018
      ],
      [
       116.34282949123934,
       39.94661072603835
      ],
      [
       116.34282948016842,
       39.94570549061656
      ]
     ]
    ]
   },
   "properties": {
    "id": "B-0052",
    "layer": "BUILDING_FOOTPRINT",
    "building_type": "talent_apartment",
    "label_zh": "人才公寓",
    "label_en": "Talent Apt",
    "height_m_conceptual": 36,
    "conceptual": true,
    "provisional_constraint": true,
    "note_zh": "概念建筑体块，非审批方案",
    "note_en": "Conceptual massing, not an approved scheme",
    "source_type": "agent_generated_design",
    "confidence": "medium",
    "geometry_role": "design_proposal",
    "generated_build": "v20260822-2236"
   }
  },
  {
   "type": "Feature",
   "id": "B-0053",
   "geometry": {
    "type": "Polygon",
    "coordinates": [
     [
      [
       116.34458931796406,
       39.9440001162608
      ],
      [
       116.34458322578246,
       39.94463855848105
      ],
      [
       116.345932295056,
       39.944638596311314
      ],
      [
       116.34593837469838,
       39.94400015391887
      ],
      [
       116.34458931796406,
       39.9440001162608
      ]
     ]
    ]
   },
   "properties": {
    "id": "B-0053",
    "layer": "BUILDING_FOOTPRINT",
    "building_type": "mixed_use",
    "label_zh": "混合功能",
    "label_en": "Mixed-use",
    "height_m_conceptual": 45,
    "conceptual": true,
    "provisional_constraint": true,
    "note_zh": "概念建筑体块，非审批方案",
    "note_en": "Conceptual massing, not an approved scheme",
    "source_type": "agent_generated_design",
    "confidence": "medium",
    "geometry_role": "design_proposal",
    "generated_build": "v20260822-2236"
   }
  },
  {
   "type": "Feature",
   "id": "B-0054",
   "geometry": {
    "type": "Polygon",
    "coordinates": [
     [
      [
       116.34676521602904,
       39.944000169240205
      ],
      [
       116.346759144072,
       39.944638611738014
      ],
      [
       116.34810821369204,
       39.94463862424745
      ],
      [
       116.34811427310984,
       39.94400018157807
      ],
      [
       116.34676521602904,
       39.944000169240205
      ]
     ]
    ]
   },
   "properties": {
    "id": "B-0054",
    "layer": "BUILDING_FOOTPRINT",
    "building_type": "talent_apartment",
    "label_zh": "人才公寓",
    "label_en": "Talent Apt",
    "height_m_conceptual": 36,
    "conceptual": true,
    "provisional_constraint": true,
    "note_zh": "概念建筑体块，非审批方案",
    "note_en": "Conceptual massing, not an approved scheme",
    "source_type": "agent_generated_design",
    "confidence": "medium",
    "geometry_role": "design_proposal",
    "generated_build": "v20260822-2236"
   }
  },
  {
   "type": "Feature",
   "id": "B-0055",
   "geometry": {
    "type": "Polygon",
    "coordinates": [
     [
      [
       116.34893936487639,
       39.94400018138717
      ],
      [
       116.34893331312763,
       39.94463862416136
      ],
      [
       116.350276673243,
       39.94463861145759
      ],
      [
       116.35028271250556,
       39.944000168513085
      ],
      [
       116.34893936487639,
       39.94400018138717
      ]
     ]
    ]
   },
   "properties": {
    "id": "B-0055",
    "layer": "BUILDING_FOOTPRINT",
    "building_type": "education",
    "label_zh": "教育科研配套",
    "label_en": "Education",
    "height_m_conceptual": 36,
    "conceptual": true,
    "provisional_constraint": true,
    "note_zh": "概念建筑体块，非审批方案",
    "note_en": "Conceptual massing, not an approved scheme",
    "source_type": "agent_generated_design",
    "confidence": "medium",
    "geometry_role": "design_proposal",
    "generated_build": "v20260822-2236"
   }
  },
  {
   "type": "Feature",
   "id": "B-0056",
   "geometry": {
    "type": "Polygon",
    "coordinates": [
     [
      [
       116.35110605470469,
       39.944000152928616
      ],
      [
       116.35110002309496,
       39.94463859597735
      ],
      [
       116.35244338354843,
       39.94463855816665
      ],
      [
       116.352449402672,
       39.94400011494816
      ],
      [
       116.35110605470469,
       39.944000152928616
      ]
     ]
    ]
   },
   "properties": {
    "id": "B-0056",
    "layer": "BUILDING_FOOTPRINT",
    "building_type": "education",
    "label_zh": "教育科研配套",
    "label_en": "Education",
    "height_m_conceptual": 24,
    "conceptual": true,
    "provisional_constraint": true,
    "note_zh": "概念建筑体块，非审批方案",
    "note_en": "Conceptual massing, not an approved scheme",
    "source_type": "agent_generated_design",
    "confidence": "medium",
    "geometry_role": "design_proposal",
    "generated_build": "v20260822-2236"
   }
  },
  {
   "type": "Feature",
   "id": "B-0057",
   "geometry": {
    "type": "Polygon",
    "coordinates": [
     [
      [
       116.35482616522738,
       39.94411345907524
      ],
      [
       116.35348288572541,
       39.94410597601716
      ],
      [
       116.35347787302292,
       39.9446385184404
      ],
      [
       116.35417053256464,
       39.94463848668138
      ],
      [
       116.35417052803923,
       39.94502631967232
      ],
      [
       116.35481755660486,
       39.94502992222412
      ],
      [
       116.35482616522738,
       39.94411345907524
      ]
     ]
    ]
   },
   "properties": {
    "id": "B-0057",
    "layer": "BUILDING_FOOTPRINT",
    "building_type": "education",
    "label_zh": "教育科研配套",
    "label_en": "Education",
    "height_m_conceptual": 36,
    "conceptual": true,
    "provisional_constraint": true,
    "note_zh": "概念建筑体块，非审批方案",
    "note_en": "Conceptual massing, not an approved scheme",
    "source_type": "agent_generated_design",
    "confidence": "medium",
    "geometry_role": "design_proposal",
    "generated_build": "v20260822-2236"
   }
  },
  {
   "type": "Feature",
   "id": "B-0058",
   "geometry": {
    "type": "Polygon",
    "coordinates": [
     [
      [
       116.35500000070243,
       39.94575910985217
      ],
      [
       116.35417051946285,
       39.94575449206514
      ],
      [
       116.35417050852028,
       39.946671002782246
      ],
      [
       116.35500000082845,
       39.946675620656784
      ],
      [
       116.35500000070243,
       39.94575910985217
      ]
     ]
    ]
   },
   "properties": {
    "id": "B-0058",
    "layer": "BUILDING_FOOTPRINT",
    "building_type": "education",
    "label_zh": "教育科研配套",
    "label_en": "Education",
    "height_m_conceptual": 36,
    "conceptual": true,
    "provisional_constraint": true,
    "note_zh": "概念建筑体块，非审批方案",
    "note_en": "Conceptual massing, not an approved scheme",
    "source_type": "agent_generated_design",
    "confidence": "medium",
    "geometry_role": "design_proposal",
    "generated_build": "v20260822-2236"
   }
  },
  {
   "type": "Feature",
   "id": "B-0059",
   "geometry": {
    "type": "Polygon",
    "coordinates": [
     [
      [
       116.34282949798582,
       39.94716901092755
      ],
      [
       116.34200000084518,
       39.947164305925114
      ],
      [
       116.34200000071662,
       39.94808084215561
      ],
      [
       116.34282950892694,
       39.94808554724713
      ],
      [
       116.34282949798582,
       39.94716901092755
      ]
     ]
    ]
   },
   "properties": {
    "id": "B-0059",
    "layer": "BUILDING_FOOTPRINT",
    "building_type": "cultural",
    "label_zh": "文化展示",
    "label_en": "Cultural",
    "height_m_conceptual": 36,
    "conceptual": true,
    "provisional_constraint": true,
    "note_zh": "概念建筑体块，非审批方案",
    "note_en": "Conceptual massing, not an approved scheme",
    "source_type": "agent_generated_design",
    "confidence": "medium",
    "geometry_role": "design_proposal",
    "generated_build": "v20260822-2236"
   }
  },
  {
   "type": "Feature",
   "id": "B-0060",
   "geometry": {
    "type": "Polygon",
    "coordinates": [
     [
      [
       116.34217355518552,
       39.94972651676133
      ],
      [
       116.34351694234464,
       39.94973413173686
      ],
      [
       116.34352203278391,
       39.94920163357266
      ],
      [
       116.34282952202406,
       39.949201601819425
      ],
      [
       116.34282951750009,
       39.94881370102133
      ],
      [
       116.34218233421782,
       39.948810030596064
      ],
      [
       116.34217355518552,
       39.94972651676133
      ]
     ]
    ]
   },
   "properties": {
    "id": "B-0060",
    "layer": "BUILDING_FOOTPRINT",
    "building_type": "cultural",
    "label_zh": "文化展示",
    "label_en": "Cultural",
    "height_m_conceptual": 45,
    "conceptual": true,
    "provisional_constraint": true,
    "note_zh": "概念建筑体块，非审批方案",
    "note_en": "Conceptual massing, not an approved scheme",
    "source_type": "agent_generated_design",
    "confidence": "medium",
    "geometry_role": "design_proposal",
    "generated_build": "v20260822-2236"
   }
  },
  {
   "type": "Feature",
   "id": "B-0061",
   "geometry": {
    "type": "Polygon",
    "coordinates": [
     [
      [
       116.34455634567,
       39.94920167329487
      ],
      [
       116.34455025205996,
       39.949840114940535
      ],
      [
       116.34589371398985,
       39.94984015292888
      ],
      [
       116.34589979511048,
       39.94920171111178
      ],
      [
       116.34455634567,
       39.94920167329487
      ]
     ]
    ]
   },
   "properties": {
    "id": "B-0061",
    "layer": "BUILDING_FOOTPRINT",
    "building_type": "cultural",
    "label_zh": "文化展示",
    "label_en": "Cultural",
    "height_m_conceptual": 18,
    "conceptual": true,
    "provisional_constraint": true,
    "note_zh": "概念建筑体块，非审批方案",
    "note_en": "Conceptual massing, not an approved scheme",
    "source_type": "agent_generated_design",
    "confidence": "medium",
    "geometry_role": "design_proposal",
    "generated_build": "v20260822-2236"
   }
  },
  {
   "type": "Feature",
   "id": "B-0062",
   "geometry": {
    "type": "Polygon",
    "coordinates": [
     [
      [
       116.34672319971179,
       39.94920172659457
      ],
      [
       116.34671712624595,
       39.949840168516616
      ],
      [
       116.34806058851946,
       39.94984018139345
      ],
      [
       116.34806664949588,
       39.94920173930049
      ],
      [
       116.34672319971179,
       39.94920172659457
      ]
     ]
    ]
   },
   "properties": {
    "id": "B-0062",
    "layer": "BUILDING_FOOTPRINT",
    "building_type": "cultural",
    "label_zh": "文化展示",
    "label_en": "Cultural",
    "height_m_conceptual": 36,
    "conceptual": true,
    "provisional_constraint": true,
    "note_zh": "概念建筑体块，非审批方案",
    "note_en": "Conceptual massing, not an approved scheme",
    "source_type": "agent_generated_design",
    "confidence": "medium",
    "geometry_role": "design_proposal",
    "generated_build": "v20260822-2236"
   }
  },
  {
   "type": "Feature",
   "id": "B-0063",
   "geometry": {
    "type": "Polygon",
    "coordinates": [
     [
      [
       116.34889176923436,
       39.94920173938679
      ],
      [
       116.34888571592869,
       39.949840181584534
      ],
      [
       116.35023477467526,
       39.94984016924633
      ],
      [
       116.35024081543946,
       39.94920172687754
      ],
      [
       116.34889176923436,
       39.94920173938679
      ]
     ]
    ]
   },
   "properties": {
    "id": "B-0063",
    "layer": "BUILDING_FOOTPRINT",
    "building_type": "retail",
    "label_zh": "商业服务",
    "label_en": "Retail",
    "height_m_conceptual": 60,
    "conceptual": true,
    "provisional_constraint": true,
    "note_zh": "概念建筑体块，非审批方案",
    "note_en": "Conceptual massing, not an approved scheme",
    "source_type": "agent_generated_design",
    "confidence": "medium",
    "geometry_role": "design_proposal",
    "generated_build": "v20260822-2236"
   }
  },
  {
   "type": "Feature",
   "id": "B-0064",
   "geometry": {
    "type": "Polygon",
    "coordinates": [
     [
      [
       116.35106765031504,
       39.94920171145102
      ],
      [
       116.35106161723753,
       39.94984015392449
      ],
      [
       116.35241067632508,
       39.949840116265094
      ],
      [
       116.35241669686113,
       39.94920167362114
      ],
      [
       116.35106765031504,
       39.94920171145102
      ]
     ]
    ]
   },
   "properties": {
    "id": "B-0064",
    "layer": "BUILDING_FOOTPRINT",
    "building_type": "mixed_use",
    "label_zh": "混合功能",
    "label_en": "Mixed-use",
    "height_m_conceptual": 60,
    "conceptual": true,
    "provisional_constraint": true,
    "note_zh": "概念建筑体块，非审批方案",
    "note_en": "Conceptual massing, not an approved scheme",
    "source_type": "agent_generated_design",
    "confidence": "medium",
    "geometry_role": "design_proposal",
    "generated_build": "v20260822-2236"
   }
  },
  {
   "type": "Feature",
   "id": "B-0065",
   "geometry": {
    "type": "Polygon",
    "coordinates": [
     [
      [
       116.35500000082467,
       39.947233905617836
      ],
      [
       116.3541705017739,
       39.94722928768999
      ],
      [
       116.35417049070455,
       39.9481345487794
      ],
      [
       116.3550000006889,
       39.94813916679366
      ],
      [
       116.35500000082467,
       39.947233905617836
      ]
     ]
    ]
   },
   "properties": {
    "id": "B-0065",
    "layer": "BUILDING_FOOTPRINT",
    "building_type": "retail",
    "label_zh": "商业服务",
    "label_en": "Retail",
    "height_m_conceptual": 18,
    "conceptual": true,
    "provisional_constraint": true,
    "note_zh": "概念建筑体块，非审批方案",
    "note_en": "Conceptual massing, not an approved scheme",
    "source_type": "agent_generated_design",
    "confidence": "medium",
    "geometry_role": "design_proposal",
    "generated_build": "v20260822-2236"
   }
  },
  {
   "type": "Feature",
   "id": "B-0066",
   "geometry": {
    "type": "Polygon",
    "coordinates": [
     [
      [
       116.35479865717095,
       39.94974910611861
      ],
      [
       116.35480716180193,
       39.948843892528224
      ],
      [
       116.35417048196254,
       39.94884034748525
      ],
      [
       116.35417047745025,
       39.94920160097161
      ],
      [
       116.35345475450897,
       39.94920163382451
      ],
      [
       116.3534496708728,
       39.949741590657545
      ],
      [
       116.35479865717095,
       39.94974910611861
      ]
     ]
    ]
   },
   "properties": {
    "id": "B-0066",
    "layer": "BUILDING_FOOTPRINT",
    "building_type": "mixed_use",
    "label_zh": "混合功能",
    "label_en": "Mixed-use",
    "height_m_conceptual": 45,
    "conceptual": true,
    "provisional_constraint": true,
    "note_zh": "概念建筑体块，非审批方案",
    "note_en": "Conceptual massing, not an approved scheme",
    "source_type": "agent_generated_design",
    "confidence": "medium",
    "geometry_role": "design_proposal",
    "generated_build": "v20260822-2236"
   }
  }
 ]
}