{
 "type": "FeatureCollection",
 "name": "constraints.geojson",
 "features": [
  {
   "type": "Feature",
   "id": "CT-001",
   "geometry": {
    "type": "Polygon",
    "coordinates": [
     [
      [
       116.34656351760725,
       39.98848667096669
      ],
      [
       116.34656370347014,
       39.98851961111737
      ],
      [
       116.34756288334223,
       40.01675689032342
      ],
      [
       116.34748579861798,
       40.024849473100645
      ],
      [
       116.34936002796609,
       40.024860011761994
      ],
      [
       116.34943700945124,
       40.01675498559572
      ],
      [
       116.34943668704459,
       40.0167301091029
      ],
      [
       116.34843687813314,
       39.9884968720066
      ],
      [
       116.34943591227979,
       39.94693346163618
      ],
      [
       116.34943604730124,
       39.946925398033315
      ],
      [
       116.34951110382367,
       39.93900021997915
      ],
      [
       116.34763911889361,
       39.9390002292654
      ],
      [
       116.34756398468825,
       39.94691084546232
      ],
      [
       116.34656351760725,
       39.98848667096669
      ]
     ]
    ]
   },
   "properties": {
    "id": "CT-001",
    "layer": "HERITAGE_PROTECTION",
    "label_zh": "京张铁路遗址公园（历史保护廊道）",
    "label_en": "Jing-Zhang Railway Heritage Park",
    "source_note_zh": "依据公开资料描述的遗址公园位置（概念示意）",
    "provisional_constraint": true,
    "source_type": "agent_inferred_from_public_data",
    "confidence": "low",
    "geometry_role": "provisional_constraint",
    "generated_build": "v20260822-2236"
   }
  }
 ]
}