{
 "type": "FeatureCollection",
 "name": "green_space.geojson",
 "features": [
  {
   "type": "Feature",
   "id": "GS-001",
   "geometry": {
    "type": "MultiPolygon",
    "coordinates": [
     [
      [
       [
        116.34949379931714,
        39.983500113347496
       ],
       [
        116.35030237145843,
        39.9498401682151
       ],
       [
        116.34655727015397,
        39.94984016594795
       ],
       [
        116.34574685994038,
        39.98350011723753
       ],
       [
        116.34949379931714,
        39.983500113347496
       ]
      ]
     ],
     [
      [
       [
        116.3500470064309,
        40.00750012018955
       ],
       [
        116.3495510648397,
        39.99350011235506
       ],
       [
        116.34580283331594,
        39.99350011807783
       ],
       [
        116.34629800813615,
        40.00750010959502
       ],
       [
        116.3500470064309,
        40.00750012018955
       ]
      ]
     ],
     [
      [
       [
        116.34665557295598,
        39.94400016754768
       ],
       [
        116.35039981519628,
        39.94400016665322
       ],
       [
        116.35044709644208,
        39.939000204001026
       ],
       [
        116.34670312658263,
        39.93900022257353
       ],
       [
        116.34665557295598,
        39.94400016754768
       ]
      ]
     ]
    ]
   },
   "properties": {
    "id": "GS-001",
    "layer": "GREEN_SPACE",
    "kind": "heritage_corridor",
    "label_zh": "京张记忆轨绿廊",
    "label_en": "Jing-Zhang Memory Rail Green Corridor",
    "conceptual": true,
    "provisional_constraint": true,
    "source_type": "agent_generated_design",
    "confidence": "medium",
    "geometry_role": "design_proposal",
    "generated_build": "v20260822-2236"
   }
  },
  {
   "type": "Feature",
   "id": "GS-002",
   "geometry": {
    "type": "Polygon",
    "coordinates": [
     [
      [
       116.35188078983299,
       40.02437083641026
      ],
      [
       116.35188126126845,
       40.00912933071442
      ],
      [
       116.34511874196534,
       40.00912932942668
      ],
      [
       116.34511921340169,
       40.02437083769746
      ],
      [
       116.35188078983299,
       40.02437083641026
      ]
     ],
     [
      [
       116.34953759922438,
       40.016914479619366
      ],
      [
       116.34951160010415,
       40.0169918832913
      ],
      [
       116.34947585867043,
       40.01706695484565
      ],
      [
       116.34943071910588,
       40.01713897129341
      ],
      [
       116.34937661610729,
       40.01720723906603
      ],
      [
       116.34931407070019,
       40.01727110069544
      ],
      [
       116.34924368522152,
       40.01732994114615
      ],
      [
       116.34916613751932,
       40.01738319373898
      ],
      [
       116.34908217442475,
       40.01743034560894
      ],
      [
       116.34899260455946,
       40.017470942644984
      ],
      [
       116.34889829054775,
       40.017504593863784
      ],
      [
       116.34880014070838,
       40.017530975175504
      ],
      [
       116.348699100306,
       40.017549832505594
      ],
      [
       116.34859614244667,
       40.01756098424167
      ],
      [
       116.3484922587052,
       40.01756432298292
      ],
      [
       116.34838844957423,
       40.017559816574654
      ],
      [
       116.34828571482775,
       40.01754750841781
      ],
      [
       116.3481850438913,
       40.01752751705109
      ],
      [
       116.34808740631198,
       40.01750003500906
      ],
      [
       116.34799374241993,
       40.01746532696772
      ],
      [
       116.34790495427154,
       40.01742372719527
      ],
      [
       116.34782189696118,
       40.01737563633239
      ],
      [
       116.34774537038562,
       40.0173215175334
      ],
      [
       116.34767611154021,
       40.01726189200545
      ],
      [
       116.34761478742111,
       40.01719733398837
      ],
      [
       116.34756198860195,
       40.017128465223905
      ],
      [
       116.34751822354669,
       40.01705594896761
      ],
      [
       116.34748391371345,
       40.016980483600804
      ],
      [
       116.34745938949665,
       40.016902795904414
      ],
      [
       116.34744488704615,
       40.016823634059364
      ],
      [
       116.34744054599416,
       40.01674376044094
      ],
      [
       116.34744640811192,
       40.01666394427664
      ],
      [
       116.34746241690877,
       40.0165849542379
      ],
      [
       116.34748841817742,
       40.01650755103764
      ],
      [
       116.34752416148058,
       40.01643248010416
      ],
      [
       116.34756930256371,
       40.01636046440266
      ],
      [
       116.3476234066717,
       40.016292197472964
      ],
      [
       116.3476859527364,
       40.0162283367508
      ],
      [
       116.34775633839557,
       40.01616949723675
      ],
      [
       116.34783388579422,
       40.01611624557401
      ],
      [
       116.34791784811287,
       40.016069094591856
      ],
      [
       116.3480074167597,
       40.01602849836718
      ],
      [
       116.34810172915724,
       40.015994847852156
      ],
      [
       116.34819987704873,
       40.015968467109516
      ],
      [
       116.3483009152444,
       40.01594961019204
      ],
      [
       116.34840387072296,
       40.01593845869619
      ],
      [
       116.34850775200115,
       40.015935120013516
      ],
      [
       116.34861155868096,
       40.015939626296536
      ],
      [
       116.3487142910826,
       40.015951934149065
      ],
      [
       116.34881495987062,
       40.01597192504412
      ],
      [
       116.34891259558053,
       40.01599940646529
      ],
      [
       116.34900625795397,
       40.01603411376035
      ],
      [
       116.34909504499296,
       40.01607571268985
      ],
      [
       116.34917810164573,
       40.016123802645524
      ],
      [
       116.34925462804084,
       40.01617792050782
      ],
      [
       116.34932388718978,
       40.01623754510566
      ],
      [
       116.34938521208481,
       40.01630210223495
      ],
      [
       116.34943801212239,
       40.016370970188056
      ],
      [
       116.34948177879187,
       40.016443485740595
      ],
      [
       116.34951609057298,
       40.0165189505383
      ],
      [
       116.34954061699646,
       40.01659663782209
      ],
      [
       116.34955512182772,
       40.01667579942693
      ],
      [
       116.34955946534299,
       40.01675567298675
      ],
      [
       116.34955360567639,
       40.016835489276325
      ],
      [
       116.34953759922438,
       40.016914479619366
      ]
     ]
    ]
   },
   "properties": {
    "id": "GS-002",
    "layer": "GREEN_SPACE",
    "kind": "neighborhood_park",
    "label_zh": "站前口袋公园",
    "label_en": "Station Pocket Park",
    "conceptual": true,
    "provisional_constraint": true,
    "source_type": "agent_generated_design",
    "confidence": "medium",
    "geometry_role": "design_proposal",
    "generated_build": "v20260822-2236"
   }
  },
  {
   "type": "Feature",
   "id": "GS-003",
   "geometry": {
    "type": "Polygon",
    "coordinates": [
     [
      [
       116.35154939103215,
       39.99238430806983
      ],
      [
       116.35154955535388,
       39.9846158131494
      ],
      [
       116.3434504449859,
       39.98461581209075
      ],
      [
       116.34345060930787,
       39.99238430912822
      ],
      [
       116.35154939103215,
       39.99238430806983
      ]
     ],
     [
      [
       116.34821027389103,
       39.988612846682656
      ],
      [
       116.34819247570543,
       39.98866585466175
      ],
      [
       116.34816800854668,
       39.988717265492085
      ],
      [
       116.34813710803428,
       39.988766584055114
      ],
      [
       116.34810007174681,
       39.988813335381046
      ],
      [
       116.34805725635648,
       39.98885706922337
      ],
      [
       116.34800907419451,
       39.98889736439516
      ],
      [
       116.34795598928021,
       39.98893383282557
      ],
      [
       116.34789851285238,
       39.9889661232974
      ],
      [
       116.34783719844566,
       39.98899392482979
      ],
      [
       116.34777263655953,
       39.98901696967326
      ],
      [
       116.34770544897111,
       39.98903503588867
      ],
      [
       116.34763628274682,
       39.9890479494846
      ],
      [
       116.34756580401,
       39.98905558609334
      ],
      [
       116.34749469152551,
       39.9890578721685
      ],
      [
       116.34742363016206,
       39.989054785693575
      ],
      [
       116.34735330429594,
       39.98904635639382
      ],
      [
       116.34728439121953,
       39.989032665450075
      ],
      [
       116.3472175546179,
       39.98901384471675
      ],
      [
       116.34715343817665,
       39.98899007545207
      ],
      [
       116.34709265938241,
       39.988961586571996
      ],
      [
       116.34703580357568,
       39.98892865244575
      ],
      [
       116.34698341831339,
       39.98889159025309
      ],
      [
       116.34693600809548,
       39.988850756929466
      ],
      [
       116.3468940295062,
       39.988806545728444
      ],
      [
       116.34685788681709,
       39.98875938243402
      ],
      [
       116.34682792809376,
       39.98870972125998
      ],
      [
       116.34680444184423,
       39.98865804047531
      ],
      [
       116.34678765424079,
       39.988604837798064
      ],
      [
       116.34677772694235,
       39.98855062560189
      ],
      [
       116.34677475553818,
       39.98849592598151
      ],
      [
       116.34677876862789,
       39.98844126572453
      ],
      [
       116.34678972754668,
       39.98838717123831
      ],
      [
       116.34680752673842,
       39.98833416348022
      ],
      [
       116.34683199477266,
       39.988282752940805
      ],
      [
       116.3468628959962,
       39.98823343472743
      ],
      [
       116.34689993280317,
       39.98818668379644
      ],
      [
       116.34694274850139,
       39.988142950379164
      ],
      [
       116.34699093074785,
       39.98810265564622
      ],
      [
       116.34704401551994,
       39.98806618765158
      ],
      [
       116.34710149158437,
       39.98803389759568
      ],
      [
       116.3471628054204,
       39.988006096443414
      ],
      [
       116.34722736655054,
       39.987983051929646
      ],
      [
       116.34729455322667,
       39.98796498598085
      ],
      [
       116.3473637184175,
       39.987952072578175
      ],
      [
       116.34743419603936,
       39.987944436081946
      ],
      [
       116.34750530737023,
       39.987942150034215
      ],
      [
       116.34757636758576,
       39.987945236450415
      ],
      [
       116.34764669235375,
       39.98795366560758
      ],
      [
       116.34771560442402,
       39.9879673563303
      ],
      [
       116.34778244015021,
       39.9879861767727
      ],
      [
       116.3478465558803,
       39.98800994568776
      ],
      [
       116.34790733415501,
       39.98803843417287
      ],
      [
       116.34796418965384,
       39.98807136787406
      ],
      [
       116.34801657483166,
       39.9881084296279
      ],
      [
       116.34806398519179,
       39.98814926251574
      ],
      [
       116.3481059641445,
       39.988193473300825
      ],
      [
       116.34814210740427,
       39.988240636215146
      ],
      [
       116.34817206688359,
       39.988290297059486
      ],
      [
       116.34819555404538,
       39.988341977577534
      ],
      [
       116.34821234268229,
       39.98839518006153
      ],
      [
       116.34822227109571,
       39.98844939214517
      ],
      [
       116.34822524365352,
       39.988504091738136
      ],
      [
       116.34822123171173,
       39.98855875205382
      ],
      [
       116.34821027389103,
       39.988612846682656
      ]
     ]
    ]
   },
   "properties": {
    "id": "GS-003",
    "layer": "GREEN_SPACE",
    "kind": "neighborhood_park",
    "label_zh": "站前口袋公园",
    "label_en": "Station Pocket Park",
    "conceptual": true,
    "provisional_constraint": true,
    "source_type": "agent_generated_design",
    "confidence": "medium",
    "geometry_role": "design_proposal",
    "generated_build": "v20260822-2236"
   }
  },
  {
   "type": "Feature",
   "id": "GS-004",
   "geometry": {
    "type": "Polygon",
    "coordinates": [
     [
      [
       116.35375572195908,
       39.94888239925141
      ],
      [
       116.35375579306378,
       39.94495772772413
      ],
      [
       116.34324420614759,
       39.944957726545226
      ],
      [
       116.34324427725238,
       39.948882400430136
      ],
      [
       116.35375572195908,
       39.94888239925141
      ]
     ],
     [
      [
       116.34910926237232,
       39.94701698175302
      ],
      [
       116.34909399630854,
       39.94706247934469
      ],
      [
       116.349073009668,
       39.94710660615693
      ],
      [
       116.34904650455427,
       39.947148937221336
      ],
      [
       116.34901473621855,
       39.9471890648629
      ],
      [
       116.3489780106018,
       39.94722660262633
      ],
      [
       116.34893668138851,
       39.94726118899796
      ],
      [
       116.34889114660068,
       39.94729249088744
      ],
      [
       116.34884184476475,
       39.94732020683587
      ],
      [
       116.34878925068817,
       39.947344069919104
      ],
      [
       116.3487338708867,
       39.94736385031858
      ],
      [
       116.34867623870612,
       39.94737935753475
      ],
      [
       116.34861690918547,
       39.947390442221796
      ],
      [
       116.3485564537114,
       39.94739699762611
      ],
      [
       116.348495454515,
       39.94739896061436
      ],
      [
       116.34843449906407,
       39.94739631228161
      ],
      [
       116.34837417440511,
       39.94738907813334
      ],
      [
       116.34831506150914,
       39.94737732783991
      ],
      [
       116.34825772967636,
       39.94736117456539
      ],
      [
       116.3482027310529,
       39.94734077387772
      ],
      [
       116.34815059531307,
       39.947316322250366
      ],
      [
       116.3481018245581,
       39.947288055170105
      ],
      [
       116.34805688848027,
       39.94725624486882
      ],
      [
       116.34801621983947,
       39.947221197701744
      ],
      [
       116.34798021029539,
       39.947183251196925
      ],
      [
       116.34794920663583,
       39.94714277080431
      ],
      [
       116.3479235074369,
       39.94710014637623
      ],
      [
       116.34790336018798,
       39.94705578841276
      ],
      [
       116.34788895890841,
       39.94701012410814
      ],
      [
       116.34788044227942,
       39.946963593236624
      ],
      [
       116.34787789230903,
       39.94691664391713
      ],
      [
       116.34788133354262,
       39.946869728297585
      ],
      [
       116.3478907328271,
       39.946823298200414
      ],
      [
       116.34790599963056,
       39.94677780077132
      ],
      [
       116.3479269869147,
       39.94673367417309
      ],
      [
       116.34795349255127,
       39.94669134336587
      ],
      [
       116.34798526126892,
       39.94665121601482
      ],
      [
       116.34802198711206,
       39.94661367856406
      ],
      [
       116.3480633163875,
       39.94657909251524
      ],
      [
       116.3481088510708,
       39.94654779094631
      ],
      [
       116.34815815263958,
       39.94652007530383
      ],
      [
       116.34821074629663,
       39.94649621250024
      ],
      [
       116.34826612554235,
       39.94647643234328
      ],
      [
       116.34832375705228,
       39.94646092532324
      ],
      [
       116.34838308581318,
       39.94644984077835
      ],
      [
       116.34844354046757,
       39.94644328545681
      ],
      [
       116.34850453881589,
       39.94644132248875
      ],
      [
       116.3485654934229,
       39.946443970778326
      ],
      [
       116.34862581727457,
       39.94645120482169
      ],
      [
       116.34868492943083,
       39.94646295495255
      ],
      [
       116.34874226062003,
       39.94647910801309
      ],
      [
       116.34879725872067,
       39.946499508443566
      ],
      [
       116.3488493940785,
       39.946523959780365
      ],
      [
       116.34889816460708,
       39.94655222654798
      ],
      [
       116.34894310062279,
       39.94658403652646
      ],
      [
       116.34898376936812,
       39.94661908337297
      ],
      [
       116.34901977917934,
       39.946657029571845
      ],
      [
       116.34905078325843,
       39.946697509684824
      ],
      [
       116.3490764830131,
       39.94674013387038
      ],
      [
       116.34909663093266,
       39.94678449163773
      ],
      [
       116.349111032972,
       39.94683015580017
      ],
      [
       116.34911955042068,
       39.946876686588915
      ],
      [
       116.34912210123917,
       39.94692363588821
      ],
      [
       116.34911866084948,
       39.94697055155097
      ],
      [
       116.34910926237232,
       39.94701698175302
      ]
     ]
    ]
   },
   "properties": {
    "id": "GS-004",
    "layer": "GREEN_SPACE",
    "kind": "neighborhood_park",
    "label_zh": "站前口袋公园",
    "label_en": "Station Pocket Park",
    "conceptual": true,
    "provisional_constraint": true,
    "source_type": "agent_generated_design",
    "confidence": "medium",
    "geometry_role": "design_proposal",
    "generated_build": "v20260822-2236"
   }
  }
 ]
}