{
 "type": "FeatureCollection",
 "name": "key_areas.geojson",
 "features": [
  {
   "type": "Feature",
   "id": "PROV-KEY-001",
   "geometry": {
    "type": "Polygon",
    "coordinates": [
     [
      [
       116.34299999999999,
       40.0075
      ],
      [
       116.354,
       40.007499999999986
      ],
      [
       116.354,
       40.026
      ],
      [
       116.34299999999999,
       40.025999999999996
      ],
      [
       116.34299999999999,
       40.0075
      ]
     ]
    ]
   },
   "properties": {
    "id": "PROV-KEY-001",
    "layer": "KEY_AREA",
    "area_id": "zhongzhiyuan_ai_acceleration_area",
    "official_area_sqm": 1921000.0,
    "name_zh": "众智园AI自主创新加速区",
    "name_en": "Zhongzhiyuan AI Acceleration Area",
    "provisional_constraint": true,
    "official_boundary": false,
    "source_id": "DATA-SRC-PROVISIONAL-BOUNDARIES-20260605",
    "source_type": "agent_inferred_from_public_data",
    "confidence": "high",
    "geometry_role": "provisional_constraint",
    "generated_build": "v20260822-2236"
   }
  },
  {
   "type": "Feature",
   "id": "PROV-KEY-002",
   "geometry": {
    "type": "Polygon",
    "coordinates": [
     [
      [
       116.34200000000001,
       39.98349999999999
      ],
      [
       116.353,
       39.9835
      ],
      [
       116.353,
       39.99349999999998
      ],
      [
       116.34200000000001,
       39.99349999999999
      ],
      [
       116.34200000000001,
       39.98349999999999
      ]
     ]
    ]
   },
   "properties": {
    "id": "PROV-KEY-002",
    "layer": "KEY_AREA",
    "area_id": "beijing_ai_origin_community",
    "official_area_sqm": 1043000.0,
    "name_zh": "北京AI原点社区",
    "name_en": "Beijing AI Origin Community",
    "provisional_constraint": true,
    "official_boundary": false,
    "source_id": "DATA-SRC-PROVISIONAL-BOUNDARIES-20260605",
    "source_type": "agent_inferred_from_public_data",
    "confidence": "high",
    "geometry_role": "provisional_constraint",
    "generated_build": "v20260822-2236"
   }
  },
  {
   "type": "Feature",
   "id": "PROV-KEY-003",
   "geometry": {
    "type": "Polygon",
    "coordinates": [
     [
      [
       116.34200000000001,
       39.943999999999996
      ],
      [
       116.35500000000002,
       39.94400000000001
      ],
      [
       116.35500000000002,
       39.94983999999999
      ],
      [
       116.34200000000001,
       39.94984
      ],
      [
       116.34200000000001,
       39.943999999999996
      ]
     ]
    ]
   },
   "properties": {
    "id": "PROV-KEY-003",
    "layer": "KEY_AREA",
    "area_id": "dazhongsi_ai_industry_cluster",
    "official_area_sqm": 720000.0,
    "name_zh": "大钟寺AI产业聚集区",
    "name_en": "Dazhongsi AI Industry Cluster",
    "provisional_constraint": true,
    "official_boundary": false,
    "source_id": "DATA-SRC-PROVISIONAL-BOUNDARIES-20260605",
    "source_type": "agent_inferred_from_public_data",
    "confidence": "high",
    "geometry_role": "provisional_constraint",
    "generated_build": "v20260822-2236"
   }
  }
 ]
}