{
 "type": "FeatureCollection",
 "name": "land_use.geojson",
 "features": [
  {
   "type": "Feature",
   "id": "LU-001",
   "geometry": {
    "type": "Polygon",
    "coordinates": [
     [
      [
       116.34441282013718,
       40.02491389624568
      ],
      [
       116.35258718201929,
       40.02491389520827
      ],
      [
       116.35258751870704,
       40.008586224920165
      ],
      [
       116.34441248344879,
       40.00858622388236
      ],
      [
       116.34441282013718,
       40.02491389624568
      ]
     ]
    ]
   },
   "properties": {
    "id": "LU-001",
    "layer": "LAND_USE",
    "land_use_code": "0802",
    "label_zh": "科研用地",
    "label_en": "R&D Land",
    "zone": "innovation_core",
    "conceptual": true,
    "provisional_constraint": true,
    "note_zh": "概念建议分区，非法定控规用地",
    "note_en": "Conceptual suggestion, not statutory",
    "source_type": "agent_generated_design",
    "confidence": "medium",
    "geometry_role": "design_proposal",
    "generated_build": "v20260822-2236"
   }
  },
  {
   "type": "Feature",
   "id": "LU-0011",
   "geometry": {
    "type": "Polygon",
    "coordinates": [
     [
      [
       116.34299999999999,
       40.0075
      ],
      [
       116.34300000852805,
       40.0167186700954
      ],
      [
       116.3444126579191,
       40.016726670437315
      ],
      [
       116.34441248344879,
       40.00858622388236
      ],
      [
       116.34857762166729,
       40.00858629647233
      ],
      [
       116.34858794631364,
       40.007500130481915
      ],
      [
       116.34299999999999,
       40.0075
      ]
     ]
    ]
   },
   "properties": {
    "id": "LU-0011",
    "layer": "LAND_USE",
    "land_use_code": "0701",
    "label_zh": "城镇住宅用地",
    "label_en": "Residential",
    "zone": "talent_living",
    "conceptual": true,
    "provisional_constraint": true,
    "note_zh": "概念建议分区，非法定控规用地",
    "note_en": "Conceptual suggestion, not statutory",
    "source_type": "agent_generated_design",
    "confidence": "medium",
    "geometry_role": "design_proposal",
    "generated_build": "v20260822-2236"
   }
  },
  {
   "type": "Feature",
   "id": "LU-0012",
   "geometry": {
    "type": "Polygon",
    "coordinates": [
     [
      [
       116.354,
       40.00749999999998
      ],
      [
       116.34858794631364,
       40.007500130481915
      ],
      [
       116.34857762166729,
       40.00858629647233
      ],
      [
       116.35258751870704,
       40.008586224920165
      ],
      [
       116.35258735646391,
       40.016772628519995
      ],
      [
       116.3540000083853,
       40.016780511996934
      ],
      [
       116.354,
       40.00749999999998
      ]
     ]
    ]
   },
   "properties": {
    "id": "LU-0012",
    "layer": "LAND_USE",
    "land_use_code": "0804",
    "label_zh": "教育用地",
    "label_en": "Education",
    "zone": "education",
    "conceptual": true,
    "provisional_constraint": true,
    "note_zh": "概念建议分区，非法定控规用地",
    "note_en": "Conceptual suggestion, not statutory",
    "source_type": "agent_generated_design",
    "confidence": "medium",
    "geometry_role": "design_proposal",
    "generated_build": "v20260822-2236"
   }
  },
  {
   "type": "Feature",
   "id": "LU-0013",
   "geometry": {
    "type": "Polygon",
    "coordinates": [
     [
      [
       116.34299999999999,
       40.025999999999996
      ],
      [
       116.34841201612065,
       40.02600013049642
      ],
      [
       116.34842234975706,
       40.0249139677932
      ],
      [
       116.34441282013718,
       40.02491389624568
      ],
      [
       116.3444126579191,
       40.016726670437315
      ],
      [
       116.34300000852805,
       40.0167186700954
      ],
      [
       116.34299999999999,
       40.025999999999996
      ]
     ]
    ]
   },
   "properties": {
    "id": "LU-0013",
    "layer": "LAND_USE",
    "land_use_code": "0803",
    "label_zh": "文化用地",
    "label_en": "Cultural",
    "zone": "cultural",
    "conceptual": true,
    "provisional_constraint": true,
    "note_zh": "概念建议分区，非法定控规用地",
    "note_en": "Conceptual suggestion, not statutory",
    "source_type": "agent_generated_design",
    "confidence": "medium",
    "geometry_role": "design_proposal",
    "generated_build": "v20260822-2236"
   }
  },
  {
   "type": "Feature",
   "id": "LU-0014",
   "geometry": {
    "type": "Polygon",
    "coordinates": [
     [
      [
       116.354,
       40.026
      ],
      [
       116.3540000083853,
       40.016780511996934
      ],
      [
       116.35258735646391,
       40.016772628519995
      ],
      [
       116.35258718201929,
       40.02491389520827
      ],
      [
       116.34842234975706,
       40.0249139677932
      ],
      [
       116.34841201612065,
       40.02600013049642
      ],
      [
       116.354,
       40.026
      ]
     ]
    ]
   },
   "properties": {
    "id": "LU-0014",
    "layer": "LAND_USE",
    "land_use_code": "05",
    "label_zh": "商业服务业用地",
    "label_en": "Commercial & Service",
    "zone": "mixed_use",
    "conceptual": true,
    "provisional_constraint": true,
    "note_zh": "概念建议分区，非法定控规用地",
    "note_en": "Conceptual suggestion, not statutory",
    "source_type": "agent_generated_design",
    "confidence": "medium",
    "geometry_role": "design_proposal",
    "generated_build": "v20260822-2236"
   }
  },
  {
   "type": "Feature",
   "id": "LU-002",
   "geometry": {
    "type": "Polygon",
    "coordinates": [
     [
      [
       116.34296707811734,
       39.99275620816905
      ],
      [
       116.35203292210932,
       39.99275620737921
      ],
      [
       116.35203304214639,
       39.98424387751536
      ],
      [
       116.34296695808015,
       39.984243876725344
      ],
      [
       116.34296707811734,
       39.99275620816905
      ]
     ]
    ]
   },
   "properties": {
    "id": "LU-002",
    "layer": "LAND_USE",
    "land_use_code": "05",
    "label_zh": "商业服务业用地",
    "label_en": "Commercial & Service",
    "zone": "mixed_core",
    "conceptual": true,
    "provisional_constraint": true,
    "note_zh": "概念建议分区，非法定控规用地",
    "note_en": "Conceptual suggestion, not statutory",
    "source_type": "agent_generated_design",
    "confidence": "medium",
    "geometry_role": "design_proposal",
    "generated_build": "v20260822-2236"
   }
  },
  {
   "type": "Feature",
   "id": "LU-0021",
   "geometry": {
    "type": "Polygon",
    "coordinates": [
     [
      [
       116.34200000000001,
       39.983499999999985
      ],
      [
       116.3420000024955,
       39.988468917504505
      ],
      [
       116.34296701953903,
       39.98847440333944
      ],
      [
       116.34296695808015,
       39.984243876725344
      ],
      [
       116.3475404905136,
       39.98424396576187
      ],
      [
       116.34754756629637,
       39.98350013048664
      ],
      [
       116.34200000000001,
       39.983499999999985
      ]
     ]
    ]
   },
   "properties": {
    "id": "LU-0021",
    "layer": "LAND_USE",
    "land_use_code": "0701",
    "label_zh": "城镇住宅用地",
    "label_en": "Residential",
    "zone": "talent_living",
    "conceptual": true,
    "provisional_constraint": true,
    "note_zh": "概念建议分区，非法定控规用地",
    "note_en": "Conceptual suggestion, not statutory",
    "source_type": "agent_generated_design",
    "confidence": "medium",
    "geometry_role": "design_proposal",
    "generated_build": "v20260822-2236"
   }
  },
  {
   "type": "Feature",
   "id": "LU-0022",
   "geometry": {
    "type": "Polygon",
    "coordinates": [
     [
      [
       116.353,
       39.9835
      ],
      [
       116.34754756629637,
       39.98350013048664
      ],
      [
       116.3475404905136,
       39.98424396576187
      ],
      [
       116.35203304214639,
       39.98424387751536
      ],
      [
       116.35203298355408,
       39.98852544164495
      ],
      [
       116.35300000245375,
       39.98853084377703
      ],
      [
       116.353,
       39.9835
      ]
     ]
    ]
   },
   "properties": {
    "id": "LU-0022",
    "layer": "LAND_USE",
    "land_use_code": "0804",
    "label_zh": "教育用地",
    "label_en": "Education",
    "zone": "education",
    "conceptual": true,
    "provisional_constraint": true,
    "note_zh": "概念建议分区，非法定控规用地",
    "note_en": "Conceptual suggestion, not statutory",
    "source_type": "agent_generated_design",
    "confidence": "medium",
    "geometry_role": "design_proposal",
    "generated_build": "v20260822-2236"
   }
  },
  {
   "type": "Feature",
   "id": "LU-0023",
   "geometry": {
    "type": "Polygon",
    "coordinates": [
     [
      [
       116.34200000000001,
       39.99349999999998
      ],
      [
       116.34745241854768,
       39.9935001304945
      ],
      [
       116.34745949760413,
       39.99275629641552
      ],
      [
       116.34296707811734,
       39.99275620816905
      ],
      [
       116.34296701953903,
       39.98847440333944
      ],
      [
       116.3420000024955,
       39.988468917504505
      ],
      [
       116.34200000000001,
       39.99349999999998
      ]
     ]
    ]
   },
   "properties": {
    "id": "LU-0023",
    "layer": "LAND_USE",
    "land_use_code": "0803",
    "label_zh": "文化用地",
    "label_en": "Cultural",
    "zone": "cultural",
    "conceptual": true,
    "provisional_constraint": true,
    "note_zh": "概念建议分区，非法定控规用地",
    "note_en": "Conceptual suggestion, not statutory",
    "source_type": "agent_generated_design",
    "confidence": "medium",
    "geometry_role": "design_proposal",
    "generated_build": "v20260822-2236"
   }
  },
  {
   "type": "Feature",
   "id": "LU-0024",
   "geometry": {
    "type": "Polygon",
    "coordinates": [
     [
      [
       116.353,
       39.993499999999976
      ],
      [
       116.35300000245375,
       39.98853084377703
      ],
      [
       116.35203298355408,
       39.98852544164495
      ],
      [
       116.35203292210932,
       39.99275620737921
      ],
      [
       116.34745949760413,
       39.99275629641552
      ],
      [
       116.34745241854768,
       39.9935001304945
      ],
      [
       116.353,
       39.993499999999976
      ]
     ]
    ]
   },
   "properties": {
    "id": "LU-0024",
    "layer": "LAND_USE",
    "land_use_code": "05",
    "label_zh": "商业服务业用地",
    "label_en": "Commercial & Service",
    "zone": "mixed_use",
    "conceptual": true,
    "provisional_constraint": true,
    "note_zh": "概念建议分区，非法定控规用地",
    "note_en": "Conceptual suggestion, not statutory",
    "source_type": "agent_generated_design",
    "confidence": "medium",
    "geometry_role": "design_proposal",
    "generated_build": "v20260822-2236"
   }
  },
  {
   "type": "Feature",
   "id": "LU-003",
   "geometry": {
    "type": "Polygon",
    "coordinates": [
     [
      [
       116.34282952202406,
       39.949201601819425
      ],
      [
       116.35417047745025,
       39.94920160097161
      ],
      [
       116.35417053256464,
       39.94463848668138
      ],
      [
       116.34282946690963,
       39.94463848583341
      ],
      [
       116.34282952202406,
       39.949201601819425
      ]
     ]
    ]
   },
   "properties": {
    "id": "LU-003",
    "layer": "LAND_USE",
    "land_use_code": "0802",
    "label_zh": "科研用地",
    "label_en": "R&D Land",
    "zone": "innovation_core",
    "conceptual": true,
    "provisional_constraint": true,
    "note_zh": "概念建议分区，非法定控规用地",
    "note_en": "Conceptual suggestion, not statutory",
    "source_type": "agent_generated_design",
    "confidence": "medium",
    "geometry_role": "design_proposal",
    "generated_build": "v20260822-2236"
   }
  },
  {
   "type": "Feature",
   "id": "LU-0031",
   "geometry": {
    "type": "Polygon",
    "coordinates": [
     [
      [
       116.34200000000001,
       39.943999999999996
      ],
      [
       116.342000000851,
       39.94688343189009
      ],
      [
       116.34282949459941,
       39.94688813686523
      ],
      [
       116.34282946690963,
       39.94463848583341
      ],
      [
       116.3485216382958,
       39.94463862493836
      ],
      [
       116.34852769387092,
       39.94400018221644
      ],
      [
       116.34200000000001,
       39.943999999999996
      ]
     ]
    ]
   },
   "properties": {
    "id": "LU-0031",
    "layer": "LAND_USE",
    "land_use_code": "0701",
    "label_zh": "城镇住宅用地",
    "label_en": "Residential",
    "zone": "talent_living",
    "conceptual": true,
    "provisional_constraint": true,
    "note_zh": "概念建议分区，非法定控规用地",
    "note_en": "Conceptual suggestion, not statutory",
    "source_type": "agent_generated_design",
    "confidence": "medium",
    "geometry_role": "design_proposal",
    "generated_build": "v20260822-2236"
   }
  },
  {
   "type": "Feature",
   "id": "LU-0032",
   "geometry": {
    "type": "Polygon",
    "coordinates": [
     [
      [
       116.35500000000002,
       39.94400000000001
      ],
      [
       116.34852769387092,
       39.94400018221644
      ],
      [
       116.3485216382958,
       39.94463862493836
      ],
      [
       116.35417053256464,
       39.94463848668138
      ],
      [
       116.35417050513391,
       39.946951868940836
      ],
      [
       116.35500000083418,
       39.94695648684219
      ],
      [
       116.35500000000002,
       39.94400000000001
      ]
     ]
    ]
   },
   "properties": {
    "id": "LU-0032",
    "layer": "LAND_USE",
    "land_use_code": "0804",
    "label_zh": "教育用地",
    "label_en": "Education",
    "zone": "education",
    "conceptual": true,
    "provisional_constraint": true,
    "note_zh": "概念建议分区，非法定控规用地",
    "note_en": "Conceptual suggestion, not statutory",
    "source_type": "agent_generated_design",
    "confidence": "medium",
    "geometry_role": "design_proposal",
    "generated_build": "v20260822-2236"
   }
  },
  {
   "type": "Feature",
   "id": "LU-0033",
   "geometry": {
    "type": "Polygon",
    "coordinates": [
     [
      [
       116.34200000000001,
       39.94984
      ],
      [
       116.34847229474246,
       39.94984018222291
      ],
      [
       116.34847835189149,
       39.94920174007765
      ],
      [
       116.34282952202406,
       39.949201601819425
      ],
      [
       116.34282949459941,
       39.94688813686523
      ],
      [
       116.342000000851,
       39.94688343189009
      ],
      [
       116.34200000000001,
       39.94984
      ]
     ]
    ]
   },
   "properties": {
    "id": "LU-0033",
    "layer": "LAND_USE",
    "land_use_code": "0803",
    "label_zh": "文化用地",
    "label_en": "Cultural",
    "zone": "cultural",
    "conceptual": true,
    "provisional_constraint": true,
    "note_zh": "概念建议分区，非法定控规用地",
    "note_en": "Conceptual suggestion, not statutory",
    "source_type": "agent_generated_design",
    "confidence": "medium",
    "geometry_role": "design_proposal",
    "generated_build": "v20260822-2236"
   }
  },
  {
   "type": "Feature",
   "id": "LU-0034",
   "geometry": {
    "type": "Polygon",
    "coordinates": [
     [
      [
       116.35500000000002,
       39.94983999999999
      ],
      [
       116.35500000083418,
       39.94695648684219
      ],
      [
       116.35417050513391,
       39.946951868940836
      ],
      [
       116.35417047745025,
       39.94920160097161
      ],
      [
       116.34847835189149,
       39.94920174007765
      ],
      [
       116.34847229474246,
       39.94984018222291
      ],
      [
       116.35500000000002,
       39.94983999999999
      ]
     ]
    ]
   },
   "properties": {
    "id": "LU-0034",
    "layer": "LAND_USE",
    "land_use_code": "05",
    "label_zh": "商业服务业用地",
    "label_en": "Commercial & Service",
    "zone": "mixed_use",
    "conceptual": true,
    "provisional_constraint": true,
    "note_zh": "概念建议分区，非法定控规用地",
    "note_en": "Conceptual suggestion, not statutory",
    "source_type": "agent_generated_design",
    "confidence": "medium",
    "geometry_role": "design_proposal",
    "generated_build": "v20260822-2236"
   }
  },
  {
   "type": "Feature",
   "id": "LU-016",
   "geometry": {
    "type": "MultiPolygon",
    "coordinates": [
     [
      [
       [
        116.34949379931714,
        39.983500113347496
       ],
       [
        116.35030237145843,
        39.9498401682151
       ],
       [
        116.34655727015397,
        39.94984016594795
       ],
       [
        116.34574685994038,
        39.98350011723753
       ],
       [
        116.34949379931714,
        39.983500113347496
       ]
      ]
     ],
     [
      [
       [
        116.3500470064309,
        40.00750012018955
       ],
       [
        116.3495510648397,
        39.99350011235506
       ],
       [
        116.34580283331594,
        39.99350011807783
       ],
       [
        116.34629800813615,
        40.00750010959502
       ],
       [
        116.3500470064309,
        40.00750012018955
       ]
      ]
     ],
     [
      [
       [
        116.34665557295598,
        39.94400016754768
       ],
       [
        116.35039981519628,
        39.94400016665322
       ],
       [
        116.35044709644208,
        39.939000204001026
       ],
       [
        116.34670312658263,
        39.93900022257353
       ],
       [
        116.34665557295598,
        39.94400016754768
       ]
      ]
     ]
    ]
   },
   "properties": {
    "id": "LU-016",
    "layer": "LAND_USE",
    "land_use_code": "1401",
    "label_zh": "公园绿地",
    "label_en": "Park & Green",
    "zone": "heritage_corridor",
    "conceptual": true,
    "provisional_constraint": true,
    "note_zh": "京张遗址公园活力带（概念建议）",
    "note_en": "Jing-Zhang heritage park vitality belt (conceptual)",
    "source_type": "agent_generated_design",
    "confidence": "medium",
    "geometry_role": "design_proposal",
    "generated_build": "v20260822-2236"
   }
  },
  {
   "type": "Feature",
   "id": "LU-F001",
   "geometry": {
    "type": "Polygon",
    "coordinates": [
     [
      [
       116.34070000000001,
       39.93899999999999
      ],
      [
       116.3397,
       39.97500000000001
      ],
      [
       116.34169999999999,
       40.006
      ],
      [
       116.34270000000001,
       40.0265
      ],
      [
       116.3553,
       40.0265
      ],
      [
       116.3533,
       39.989999999999995
      ],
      [
       116.3553,
       39.965
      ],
      [
       116.3553,
       39.939
      ],
      [
       116.35044709644208,
       39.939000204001026
      ],
      [
       116.35039981519628,
       39.94400016665322
      ],
      [
       116.34665557295598,
       39.94400016754768
      ],
      [
       116.34670312658263,
       39.93900022257353
      ],
      [
       116.34765209435398,
       39.93900022930507
      ],
      [
       116.34070000000001,
       39.93899999999999
      ]
     ],
     [
      [
       116.354,
       40.00749999999998
      ],
      [
       116.3540000083853,
       40.01678051199693
      ],
      [
       116.354,
       40.026
      ],
      [
       116.34841201612065,
       40.02600013049642
      ],
      [
       116.34299999999999,
       40.025999999999996
      ],
      [
       116.34300000852805,
       40.0167186700954
      ],
      [
       116.34299999999999,
       40.0075
      ],
      [
       116.34858794631364,
       40.007500130481915
      ],
      [
       116.354,
       40.00749999999998
      ]
     ],
     [
      [
       116.34200000000001,
       39.99349999999998
      ],
      [
       116.3420000024955,
       39.988468917504505
      ],
      [
       116.34200000000001,
       39.98349999999998
      ],
      [
       116.34754756629637,
       39.98350013048664
      ],
      [
       116.353,
       39.9835
      ],
      [
       116.35300000245375,
       39.98853084377703
      ],
      [
       116.353,
       39.993499999999976
      ],
      [
       116.34745241854768,
       39.993500130494496
      ],
      [
       116.34200000000001,
       39.99349999999998
      ]
     ],
     [
      [
       116.35500000000002,
       39.94400000000001
      ],
      [
       116.35500000083418,
       39.94695648684219
      ],
      [
       116.35500000000002,
       39.94983999999999
      ],
      [
       116.34847229474246,
       39.94984018222289
      ],
      [
       116.34200000000001,
       39.94984
      ],
      [
       116.342000000851,
       39.94688343189009
      ],
      [
       116.34200000000001,
       39.943999999999996
      ],
      [
       116.34852769387092,
       39.94400018221644
      ],
      [
       116.35500000000002,
       39.94400000000001
      ]
     ],
     [
      [
       116.34949379931714,
       39.983500113347496
      ],
      [
       116.34574685994038,
       39.98350011723753
      ],
      [
       116.34655727015397,
       39.94984016594795
      ],
      [
       116.35030237145843,
       39.9498401682151
      ],
      [
       116.34949379931714,
       39.983500113347496
      ]
     ],
     [
      [
       116.3500470064309,
       40.00750012018955
      ],
      [
       116.34629800813615,
       40.00750010959502
      ],
      [
       116.34580283331594,
       39.99350011807784
      ],
      [
       116.3495510648397,
       39.99350011235506
      ],
      [
       116.3500470064309,
       40.00750012018955
      ]
     ]
    ]
   },
   "properties": {
    "id": "LU-F001",
    "layer": "LAND_USE",
    "land_use_code": "0701",
    "label_zh": "城镇住宅用地",
    "label_en": "Residential",
    "zone": "existing_retained",
    "conceptual": true,
    "provisional_constraint": true,
    "note_zh": "现状城市肌理保留（概念补全，未做地块级设计）",
    "note_en": "Existing urban fabric retained (conceptual fill, no parcel-level design)",
    "source_type": "agent_generated_design",
    "confidence": "medium",
    "geometry_role": "design_proposal",
    "generated_build": "v20260822-2236"
   }
  }
 ]
}