{
 "type": "FeatureCollection",
 "name": "phasing.geojson",
 "features": [
  {
   "type": "Feature",
   "id": "PH-001",
   "geometry": {
    "type": "Polygon",
    "coordinates": [
     [
      [
       116.34200000000001,
       39.94984
      ],
      [
       116.35500000000002,
       39.94983999999999
      ],
      [
       116.35500000000002,
       39.94400000000001
      ],
      [
       116.34200000000001,
       39.943999999999996
      ],
      [
       116.34200000000001,
       39.94984
      ]
     ]
    ]
   },
   "properties": {
    "id": "PH-001",
    "layer": "PHASE",
    "phase": "P1",
    "years": "2026-2028",
    "label_zh": "轻量试点：钟摆广场与大钟寺AI健康场景",
    "label_en": "Pilot: Pendulum Plaza & Dazhongsi AI-health",
    "conceptual": true,
    "provisional_constraint": true,
    "source_type": "agent_generated_design",
    "confidence": "medium",
    "geometry_role": "design_proposal",
    "generated_build": "v20260822-2236"
   }
  },
  {
   "type": "Feature",
   "id": "PH-002",
   "geometry": {
    "type": "Polygon",
    "coordinates": [
     [
      [
       116.34200000000001,
       39.99349999999998
      ],
      [
       116.353,
       39.993499999999976
      ],
      [
       116.353,
       39.9835
      ],
      [
       116.34200000000001,
       39.983499999999985
      ],
      [
       116.34200000000001,
       39.99349999999998
      ]
     ]
    ]
   },
   "properties": {
    "id": "PH-002",
    "layer": "PHASE",
    "phase": "P2",
    "years": "2029-2032",
    "label_zh": "原点社区成型：AI原点社区与数字月台",
    "label_en": "Origin Community: AI Origin & Platform Zero",
    "conceptual": true,
    "provisional_constraint": true,
    "source_type": "agent_generated_design",
    "confidence": "medium",
    "geometry_role": "design_proposal",
    "generated_build": "v20260822-2236"
   }
  },
  {
   "type": "Feature",
   "id": "PH-003",
   "geometry": {
    "type": "Polygon",
    "coordinates": [
     [
      [
       116.34299999999999,
       40.025999999999996
      ],
      [
       116.354,
       40.026
      ],
      [
       116.354,
       40.00749999999998
      ],
      [
       116.34299999999999,
       40.0075
      ],
      [
       116.34299999999999,
       40.025999999999996
      ]
     ]
    ]
   },
   "properties": {
    "id": "PH-003",
    "layer": "PHASE",
    "phase": "P3",
    "years": "2033-2035",
    "label_zh": "众智园加速：众智园全栈创新集群",
    "label_en": "Zhongzhiyuan full-stack cluster",
    "conceptual": true,
    "provisional_constraint": true,
    "source_type": "agent_generated_design",
    "confidence": "medium",
    "geometry_role": "design_proposal",
    "generated_build": "v20260822-2236"
   }
  }
 ]
}