{
 "type": "FeatureCollection",
 "name": "public_space.geojson",
 "features": [
  {
   "type": "Feature",
   "id": "PS-001",
   "geometry": {
    "type": "Polygon",
    "coordinates": [
     [
      [
       116.34935376250793,
       40.016102802141255
      ],
      [
       116.34765864315057,
       40.01609327232332
      ],
      [
       116.3476462323918,
       40.01739663448
      ],
      [
       116.34934138399318,
       40.01740616473531
      ],
      [
       116.34935376250793,
       40.016102802141255
      ]
     ]
    ]
   },
   "properties": {
    "id": "PS-001",
    "layer": "PUBLIC_SPACE",
    "kind": "station_square",
    "label_zh": "零号月台（北京北站门户）",
    "label_en": "Platform Zero Gateway",
    "conceptual": true,
    "provisional_constraint": true,
    "source_type": "agent_generated_design",
    "confidence": "medium",
    "geometry_role": "design_proposal",
    "generated_build": "v20260822-2236"
   }
  },
  {
   "type": "Feature",
   "id": "PS-002",
   "geometry": {
    "type": "Polygon",
    "coordinates": [
     [
      [
       116.3480844373308,
       39.98805698705676
      ],
      [
       116.3469240543887,
       39.988050454554156
      ],
      [
       116.34691555416265,
       39.98894303215887
      ],
      [
       116.34807595220529,
       39.98894956486684
      ],
      [
       116.3480844373308,
       39.98805698705676
      ]
     ]
    ]
   },
   "properties": {
    "id": "PS-002",
    "layer": "PUBLIC_SPACE",
    "kind": "station_square",
    "label_zh": "原点广场",
    "label_en": "Origin Plaza",
    "conceptual": true,
    "provisional_constraint": true,
    "source_type": "agent_generated_design",
    "confidence": "medium",
    "geometry_role": "design_proposal",
    "generated_build": "v20260822-2236"
   }
  },
  {
   "type": "Feature",
   "id": "PS-003",
   "geometry": {
    "type": "Polygon",
    "coordinates": [
     [
      [
       116.34900131123688,
       39.94653988199113
      ],
      [
       116.34800594964337,
       39.946534288489715
      ],
      [
       116.347998676652,
       39.94730039891473
      ],
      [
       116.34899404934681,
       39.94730599256708
      ],
      [
       116.34900131123688,
       39.94653988199113
      ]
     ]
    ]
   },
   "properties": {
    "id": "PS-003",
    "layer": "PUBLIC_SPACE",
    "kind": "station_square",
    "label_zh": "钟摆广场（大钟寺）",
    "label_en": "Pendulum Plaza (Dazhongsi)",
    "conceptual": true,
    "provisional_constraint": true,
    "source_type": "agent_generated_design",
    "confidence": "medium",
    "geometry_role": "design_proposal",
    "generated_build": "v20260822-2236"
   }
  }
 ]
}