{
 "type": "FeatureCollection",
 "name": "roads.geojson",
 "features": [
  {
   "type": "Feature",
   "id": "ROAD-001",
   "geometry": {
    "type": "LineString",
    "coordinates": [
     [
      116.34857511130738,
      39.93900022840061
     ],
     [
      116.34849999671977,
      39.946920141571596
     ],
     [
      116.34749999952184,
      39.988500011128586
     ],
     [
      116.34850000551087,
      40.01674972155629
     ],
     [
      116.34842291316863,
      40.024854746220115
     ]
    ]
   },
   "properties": {
    "id": "ROAD-001",
    "layer": "ROAD_CENTERLINE",
    "road_class": "greenway",
    "label_zh": "数轨慢行主轴（绿道）",
    "label_en": "Digital Rail Greenway Spine",
    "conceptual": true,
    "provisional_constraint": true,
    "source_type": "agent_generated_design",
    "confidence": "medium",
    "geometry_role": "design_proposal",
    "generated_build": "v20260822-2236"
   }
  },
  {
   "type": "Feature",
   "id": "ROAD-002",
   "geometry": {
    "type": "LineString",
    "coordinates": [
     [
      116.34168718314248,
      40.00580141907288
     ],
     [
      116.35416944809309,
      40.00587165122164
     ]
    ]
   },
   "properties": {
    "id": "ROAD-002",
    "layer": "ROAD_CENTERLINE",
    "road_class": "secondary",
    "label_zh": "站区环路 K1",
    "label_en": "Station Ring K1",
    "conceptual": true,
    "provisional_constraint": true,
    "source_type": "agent_generated_design",
    "confidence": "medium",
    "geometry_role": "design_proposal",
    "generated_build": "v20260822-2236"
   }
  },
  {
   "type": "Feature",
   "id": "ROAD-002a",
   "geometry": {
    "type": "LineString",
    "coordinates": [
     [
      116.34294186358893,
      40.01356324513771
     ],
     [
      116.35411668157641,
      40.013626065849785
     ]
    ]
   },
   "properties": {
    "id": "ROAD-002a",
    "layer": "ROAD_CENTERLINE",
    "road_class": "branch",
    "label_zh": "站区次干路 1a",
    "label_en": "Station Branch 1a",
    "conceptual": true,
    "provisional_constraint": true,
    "source_type": "agent_generated_design",
    "confidence": "medium",
    "geometry_role": "design_proposal",
    "generated_build": "v20260822-2236"
   }
  },
  {
   "type": "Feature",
   "id": "ROAD-002b",
   "geometry": {
    "type": "LineString",
    "coordinates": [
     [
      116.34288311639236,
      40.01968831879491
     ],
     [
      116.35405893334324,
      40.019751153056866
     ]
    ]
   },
   "properties": {
    "id": "ROAD-002b",
    "layer": "ROAD_CENTERLINE",
    "road_class": "branch",
    "label_zh": "站区次干路 1b",
    "label_en": "Station Branch 1b",
    "conceptual": true,
    "provisional_constraint": true,
    "source_type": "agent_generated_design",
    "confidence": "medium",
    "geometry_role": "design_proposal",
    "generated_build": "v20260822-2236"
   }
  },
  {
   "type": "Feature",
   "id": "ROAD-003",
   "geometry": {
    "type": "MultiLineString",
    "coordinates": [
     [
      [
       116.35355637770199,
       39.99468081379324
      ],
      [
       116.3409649655481,
       39.99460989977025
      ]
     ],
     [
      [
       116.3405104530289,
       39.98756506386951
      ],
      [
       116.34056094153588,
       39.982314114527696
      ],
      [
       116.35390902557324,
       39.98238928744177
      ]
     ]
    ]
   },
   "properties": {
    "id": "ROAD-003",
    "layer": "ROAD_CENTERLINE",
    "road_class": "secondary",
    "label_zh": "站区环路 K2",
    "label_en": "Station Ring K2",
    "conceptual": true,
    "provisional_constraint": true,
    "source_type": "agent_generated_design",
    "confidence": "medium",
    "geometry_role": "design_proposal",
    "generated_build": "v20260822-2236"
   }
  },
  {
   "type": "Feature",
   "id": "ROAD-003a",
   "geometry": {
    "type": "LineString",
    "coordinates": [
     [
      116.34196873933534,
      39.986758335100056
     ],
     [
      116.35306301610407,
      39.98682078995258
     ]
    ]
   },
   "properties": {
    "id": "ROAD-003a",
    "layer": "ROAD_CENTERLINE",
    "road_class": "branch",
    "label_zh": "站区次干路 2a",
    "label_en": "Station Branch 2a",
    "conceptual": true,
    "provisional_constraint": true,
    "source_type": "agent_generated_design",
    "confidence": "medium",
    "geometry_role": "design_proposal",
    "generated_build": "v20260822-2236"
   }
  },
  {
   "type": "Feature",
   "id": "ROAD-003b",
   "geometry": {
    "type": "LineString",
    "coordinates": [
     [
      116.34193687936056,
      39.99007858928483
     ],
     [
      116.35303169319005,
      39.99014105144058
     ]
    ]
   },
   "properties": {
    "id": "ROAD-003b",
    "layer": "ROAD_CENTERLINE",
    "road_class": "branch",
    "label_zh": "站区次干路 2b",
    "label_en": "Station Branch 2b",
    "conceptual": true,
    "provisional_constraint": true,
    "source_type": "agent_generated_design",
    "confidence": "medium",
    "geometry_role": "design_proposal",
    "generated_build": "v20260822-2236"
   }
  },
  {
   "type": "Feature",
   "id": "ROAD-004",
   "geometry": {
    "type": "LineString",
    "coordinates": [
     [
      116.35530001640451,
      39.95087241390249
     ],
     [
      116.34069059457215,
      39.95079024905772
     ],
     [
      116.34076573799778,
      39.94296224516239
     ],
     [
      116.35530000868333,
      39.943043978732234
     ]
    ]
   },
   "properties": {
    "id": "ROAD-004",
    "layer": "ROAD_CENTERLINE",
    "road_class": "secondary",
    "label_zh": "站区环路 K3",
    "label_en": "Station Ring K3",
    "conceptual": true,
    "provisional_constraint": true,
    "source_type": "agent_generated_design",
    "confidence": "medium",
    "geometry_role": "design_proposal",
    "generated_build": "v20260822-2236"
   }
  },
  {
   "type": "Feature",
   "id": "ROAD-004a",
   "geometry": {
    "type": "LineString",
    "coordinates": [
     [
      116.34198200681104,
      39.94587815260146
     ],
     [
      116.35503651896795,
      39.945951512397464
     ]
    ]
   },
   "properties": {
    "id": "ROAD-004a",
    "layer": "ROAD_CENTERLINE",
    "road_class": "branch",
    "label_zh": "站区次干路 3a",
    "label_en": "Station Branch 3a",
    "conceptual": true,
    "provisional_constraint": true,
    "source_type": "agent_generated_design",
    "confidence": "medium",
    "geometry_role": "design_proposal",
    "generated_build": "v20260822-2236"
   }
  },
  {
   "type": "Feature",
   "id": "ROAD-004b",
   "geometry": {
    "type": "LineString",
    "coordinates": [
     [
      116.34196331199932,
      39.94782935419816
     ],
     [
      116.35501819498195,
      39.9479027190366
     ]
    ]
   },
   "properties": {
    "id": "ROAD-004b",
    "layer": "ROAD_CENTERLINE",
    "road_class": "branch",
    "label_zh": "站区次干路 3b",
    "label_en": "Station Branch 3b",
    "conceptual": true,
    "provisional_constraint": true,
    "source_type": "agent_generated_design",
    "confidence": "medium",
    "geometry_role": "design_proposal",
    "generated_build": "v20260822-2236"
   }
  },
  {
   "type": "Feature",
   "id": "ROAD-099",
   "geometry": {
    "type": "LineString",
    "coordinates": [
     [
      116.34389515027021,
      39.93900015715797
     ],
     [
      116.34376811472625,
      39.952297157233566
     ]
    ]
   },
   "properties": {
    "id": "ROAD-099",
    "layer": "ROAD_CENTERLINE",
    "road_class": "transit_connection",
    "label_zh": "北京北站轨道接驳线",
    "label_en": "Beijing North Station Transit Link",
    "conceptual": true,
    "provisional_constraint": true,
    "source_type": "agent_generated_design",
    "confidence": "medium",
    "geometry_role": "design_proposal",
    "generated_build": "v20260822-2236"
   }
  }
 ]
}