{
 "type": "FeatureCollection",
 "name": "site_boundary.geojson",
 "features": [
  {
   "type": "Feature",
   "id": "SITE-001",
   "geometry": {
    "type": "Polygon",
    "coordinates": [
     [
      [
       116.34070000000001,
       39.93899999999999
      ],
      [
       116.3553,
       39.939
      ],
      [
       116.3553,
       39.965
      ],
      [
       116.3533,
       39.989999999999995
      ],
      [
       116.3553,
       40.0265
      ],
      [
       116.34270000000001,
       40.0265
      ],
      [
       116.34169999999999,
       40.006
      ],
      [
       116.3397,
       39.97500000000001
      ],
      [
       116.34070000000001,
       39.93899999999999
      ]
     ]
    ]
   },
   "properties": {
    "id": "SITE-001",
    "layer": "SITE_BOUNDARY",
    "name_zh": "总体设计范围（临时边界）",
    "name_en": "Overall Design Area (provisional)",
    "provisional_constraint": true,
    "official_boundary": false,
    "source_id": "DATA-SRC-PROVISIONAL-BOUNDARIES-20260605",
    "note_zh": "临时粗略替代边界，非官方红线；正式边界发布后必须重算。",
    "source_type": "agent_inferred_from_public_data",
    "confidence": "high",
    "geometry_role": "provisional_constraint",
    "generated_build": "v20260822-2236"
   }
  }
 ]
}